id,sido_name,sigungu_name,remarks,shel_nm,address,lon,lat,shel_av,lenth,shel_div_type,seismic,height
1,부산광역시,강서구,대항지구,대항주차장,부산광역시 강서구 대항동 산 13-26,128.83003,35.01224342,6053,200,도로변,,15
2,부산광역시,강서구,대항지구,마을진입로,부산광역시 강서구 대항동 382-2,128.827586,35.014489,463,80,도로변,,35
3,부산광역시,강서구,대항지구,(구)외항포가는길,부산광역시 강서구 대항동 산 13-29,128.825139,35.00989,397,55,도로변,,25
4,부산광역시,해운대구,공수지구,공수마을뒷산(멍두산),부산광역시 기장군 기장읍 시랑리 690-3,129.206691,35.184021,400,550,공터,,30
5,부산광역시,해운대구,공수지구,당사마을 정자 앞 도로,부산광역시 기장군 기장읍 당사리 510,129.210417,35.186795,400,300,도로변,,30
6,부산광역시,기장군,대변지구,대항교회,부산광역시 기장군 기장읍 대변리 149,129.226349,35.226377,300,350,민간건축물,미적용,11
7,부산광역시,기장군,대변지구,대변항 입구 교차로,부산광역시 기장군 기장읍 대변리 450,129.226416,35.223697,300,75,도로변,,15
8,부산광역시,기장군,대변지구,힐타운 앞 도로,부산광역시 기장군 기장읍 대변리 266-5,129.231593,35.222842,270,60,도로변,,18
9,부산광역시,기장군,동백지구,부경대수산과학연구소 앞 야산,부산광역시 기장군 일광면 동백리 241-3,129.254608,35.285577,650,320,공터,,17
10,부산광역시,기장군,동암지구,국립수산과학원 정문 앞 도로,부산광역시 기장군 기장읍 시랑리 408-1,129.221079,35.192202,200,500,도로변,,14
11,부산광역시,기장군,동암지구,힐튼호텔 앞 도로,부산광역시 기장군 기장읍 시랑리 704,129.226387,35.198913,500,300,도로변,,21
12,부산광역시,해운대구,서암-신암지구,서암마을 뒤 신도로,부산광역시 기장군 기장읍 연화리 507,129.219586,35.214049,500,200,도로변,,28
13,부산광역시,기장군,서암-신암지구,신암마을 뒤 신도로1,부산광역시 기장군 기장읍 연화리 284-32,129.222481,35.218801,300,500,도로변,,17
14,부산광역시,기장군,서암-신암지구,신암마을 뒤 신도로2,부산광역시 기장군 기장읍 연화리 193,129.224961,35.219069,300,250,도로변,,17
15,부산광역시,기장군,서암-신암지구,신암마을 교차로,부산광역시 기장군 기장읍 연화리 산1-7,129.226263,35.220135,300,200,도로변,,17
16,부산광역시,기장군,월내-길천지구,고리스포츠문화센터,부산광역시 기장군 장안읍 길천리 85,129.285757,35.329446,1500,500,공공건축물,1등급,14
17,부산광역시,기장군,월내-길천지구,기장문화예절학교,부산광역시 기장군 장안읍 월내리 579,129.266749,35.325827,900,550,공공건축물,2등급,34
18,부산광역시,기장군,월내-길천지구,월내야산(삼막골),부산광역시 기장군 장안읍 월내리 286-2,129.275601,35.329141,700,400,공터,,26
19,부산광역시,기장군,월전-죽성지구,월전마을 야산 사거리,부산광역시 기장군 기장읍 죽성리 296-1,129.241272,35.239726,500,520,공터,,16
20,부산광역시,기장군,월전-죽성지구,왜성주차장,부산광역시 기장군 기장읍 죽성리 258,129.243741,35.241015,500,400,공터,,16
21,부산광역시,기장군,월전-죽성지구,사랑애 펜션 앞 도로,부산광역시 기장군 기장읍 죽성리 481-1,129.240977,35.236912,90,130,도로변,,15
22,부산광역시,기장군,임랑지구,임랑야산(대덕사),부산광역시 기장군 장안읍 임랑리 97-10,129.258666,35.318627,350,400,공터,,11
23,부산광역시,기장군,칠암-문동지구,문동마을 뒷산,부산광역시 기장군 일광면 문동리 산25-3,129.254578,35.307811,500,600,공터,,42
24,부산광역시,기장군,칠암-문동지구,칠암초등학교,부산광역시 기장군 일광면 칠암리 134,129.253261,35.298855,300,200,공공건축물,1등급,11
25,부산광역시,기장군,학리-이동지구,이동마을 뒷산,부산광역시 기장군 일광면 이천리 221-4,129.242017,35.273441,400,500,공터,,14
26,부산광역시,기장군,학리-이동지구,학리마을 뒷산 도로,부산광역시 기장군 일광면 학리 176,129.241329,35.256955,300,300,공터,,23
27,부산광역시,기장군,학리-이동지구,한국유리 출입구 앞 도로,부산광역시 기장군 일광면 일광로 188,129.239565,35.266542,80,200,도로변,,14
28,부산광역시,기장군,학리-이동지구,다미원수산 앞 도로,부산광역시 기장군 일광면 일역길 75-13,129.232108,35.261311,200,150,도로변,,14
29,부산광역시,기장군,학리-이동지구,푸른솔유치원 앞 도로,부산광역시 기장군 일광면 이화로 47-10,129.232126,35.270259,400,650,도로변,,18
30,부산광역시,남구,용호섶자리지구,동생말 언덕,부산광역시 남구 용호동 산5-4,129.118299,35.127632,300,600,도로변,,25
31,부산광역시,사하구,다대1지구,몰운대공터,부산광역시 사하구 다대동 469-2,128.969475,35.044873,1000,250,공터,,10
32,부산광역시,사하구,다대1지구,중현초등학교,부산광역시 사하구 다대낙조2길 9,128.966515,35.050725,1438,755,학교운동장,,35
33,부산광역시,사하구,다대2지구,BMC아파트 테니스장,부산광역시 사하구 다대2동 113-9,128.978905,35.064557,151,818,공터,,40
34,부산광역시,사하구,다대2지구,두송종합사회복지관앞주차장,부산광역시 사하구 다송로 59,128.984229,35.06195,300,656,공터,,27
35,부산광역시,서구,송도해수욕장 지구,송도 탑스빌 광장,부산광역시 서구 암남동 261-2,129.018408,35.078222,200,160,도로변,,30
36,부산광역시,서구,송도해수욕장 지구,송도공원(식당) 주차장 앞 공터,부산광역시 서구 암남공원로 75(암남동 618-8),129.0182978,35.070484,250,100,공터,,35
37,부산광역시,서구,송도해수욕장 지구,송도해수욕장 공영주차장,부산광역시 서구 암남공원로 25(암남동 579),129.0157119,35.073722,1000,360,공공건축물,미적용,23
38,부산광역시,서구,송도해수욕장 지구,송도초등학교 운동장,부산광역시 서구 충무대로 25(암남동 313),129.0155937,35.078214,1200,210,학교운동장,,20
39,부산광역시,서구,한진매립지 지구,송림공원,부산광역시 서구 송도해변로 151(암남동 124-1),129.0231974,35.076793,1500,250,공터,,11
40,부산광역시,서구,한진매립지 지구,암남동주민센터 주차장,부산광역시 서구 충무대로 83(암남동 88-5),129.02095,35.079898,200,370,공터,,22
41,부산광역시,서구,암남공원 지구,암남공원,부산광역시 서구 암남공원로 179-13(암남동 620-38),129.020151,35.0625,5000,210,공터,,16
42,부산광역시,남구,남천지구,수영구청,부산광역시 수영구 남천동 148-15,129.113419,35.145921,1731,410,공공건축물,미적용,21
43,부산광역시,남구,남천지구,코오롱하늘채아파트,부산광역시 수영구 남천2동 남천동 151,129.112313,35.142663,16503,370,민간건축물,적용,28
44,부산광역시,남구,광안지구,광안초등학교,부산광역시 수영구 광안동 154,129.11678,35.157418,850,450,학교운동장,,11
45,부산광역시,남구,광안지구,한바다중학교,부산광역시 수영구 광안동 154-1,129.118085,35.157414,917,445,학교운동장,,11
46,부산광역시,해운대구,민락지구,백산,부산광역시 수영구 민락동 327-2,129.126165,35.162783,1236,650,공터,,40
47,부산광역시,해운대구,민락지구,민락초등학교,부산광역시 수영구 광남로257번길 12,129.127105,35.160947,2199,600,학교운동장,,29
48,부산광역시,수영구,민락지구,민락동 행정복지센터,부산광역시 수영구 광안해변로295번길 20,129.125408,35.157344,203,410,공공건축물,적용,12
49,부산광역시,해운대구,해운대지구,달맞이고개,부산광역시 해운대구 중동 974-1,129.182299,35.156866,1000,590,공터,,26
50,부산광역시,해운대구,해운대지구,동백공원,부산광역시 해운대구 우동 710-1,129.151932,35.153587,5000,460,공터,,40
51,부산광역시,해운대구,해운대지구,해운대구청,부산광역시 해운대구 중동2로 11,129.163853,35.163241,1000,520,공공건축물,적용,15
52,부산광역시,해운대구,해운대지구,해운대구관광시설관리사업소,부산광역시 해운대구 중동 1415-48,129.160387,35.159266,100,50,공공건축물,적용,11
53,부산광역시,해운대구,송정지구,죽도공원,부산광역시 해운대구 송정동 산52-1,129.205383,35.17945,1000,100,공터,,12
54,부산광역시,해운대구,송정지구,해운대경찰서 방범순찰대,부산광역시 해운대구 송정동 산86-25,129.195498,35.173852,5000,460,공터,,35
55,울산광역시,남구,장생포해안지구,고래문화마을,울산광역시 남구 장생포동 232,129.379526,35.505382,30000,280,공터,,21
56,울산광역시,남구,장생포해안지구,울산항만공사,울산광역시 남구 매암동 180,129.382843,35.504897,100,100,공공건축물,특등급,14
57,울산광역시,남구,장생포해안지구,장생포복지문화센터,울산광역시 남구 야음장생포동 41-4,129.377578,35.502885,100,60,공공건축물,2등급,17
58,울산광역시,남구,장생포해안지구,장생포초등학교,울산광역시 남구 야음장생포동 329-1,129.368254,35.503481,500,140,학교운동장,,11
59,울산광역시,남구,장생포해안지구,장생포항 야산,울산광역시 남구 야음장생포동 산102-1,129.371267,35.502707,200,250,공터,,12
60,울산광역시,남구,장생포해안지구,태영인더스트리사택 앞 주차장,울산광역시 남구 야음장생포동 267-7,129.374527,35.505649,200,360,공터,,18
61,울산광역시,동구,방어지구,방어진초등학교(운동장),울산광역시 동구 방어동 146,129.424769,35.487426,4557,500,학교운동장,,17
62,울산광역시,동구,방어지구,성끝마을 수협위판장 뒤 야산,울산광역시 동구 방어동 18-32,129.432083,35.484407,4242,150,공터,,18
63,울산광역시,동구,방어지구,화암초등학교(운동장),울산광역시 동구 방어동 1150,129.415682,35.484362,7963,300,학교운동장,,21
64,울산광역시,동구,일산지구,고늘마을 현대주차장 옆 공터,울산광역시 동구 일산동 305-4,129.434494,35.501862,2545,160,공터,,28
65,울산광역시,동구,일산지구,대왕암 앞 공영주차장,울산광역시 동구 일산동 901,129.434034,35.490565,5854,170,공터,,18
66,울산광역시,동구,일산지구,일산지 공영주차장,울산광역시 동구 일산동 963,129.428744,35.49461,5212,230,공터,,17
67,울산광역시,동구,주전지구,주전 카페 멍데이 뒤 야산,울산광역시 동구 주전동 14,129.452916,35.566976,3515,200,공터,,18
68,울산광역시,동구,주전지구,주전초등학교(운동장),울산광역시 동구 주전동 277,129.456836,35.557874,3939,90,학교운동장,,18
69,울산광역시,북구,구유지구,복성마을 야산,울산광역시 북구 구유동 산64,129.455147,35.607875,100,150,공터,,22
70,울산광역시,북구,구유지구,정자오피스텔 주차장,울산광역시 북구 구유동 232,129.45707,35.611467,300,100,공터,,12
71,울산광역시,북구,구유지구,제전마을 야산,울산광역시 북구 구유동 82-3,129.457451,35.605254,200,200,공터,,20
72,울산광역시,북구,당사지구,강동축구장 주차장,울산광역시 북구 당사동 214,129.456464,35.587707,300,300,공터,,18
73,울산광역시,동구,당사지구,어물동 야산,울산광역시 북구 어물동 산372,129.449477,35.575367,300,200,공터,,15
74,울산광역시,북구,당사지구,우가경로당 주차장,울산광역시 북구 당사동 116-5,129.462936,35.595775,30,70,공터,,12
75,울산광역시,북구,당사지구,튜릭아트박물관,울산광역시 북구 당사동 465-2,129.45464,35.581876,200,150,공터,,14
76,울산광역시,북구,산하지구,시코어 호텔 주차장,울산광역시 북구 산하동 55-1,129.441828,35.63422,200,80,공터,,11
77,경상북도,경주시,신명지구,교육수련원 운동장,울산광역시 북구 신명동 153-5,129.439443,35.641358,200,150,공터,,11
78,경상북도,경주시,신명지구,신명동 야산,울산광역시 북구 신명동 134-2,129.439227,35.644428,100,230,공터,,24
79,경상북도,경주시,신명지구,지경IC,울산광역시 북구 신명동 산1-2,129.44786,35.651001,100,150,공터,,20
80,울산광역시,북구,정자지구,울산교육연수원,울산광역시 북구 정자동 272,129.444137,35.613924,400,500,공터,,16
81,울산광역시,북구,정자지구,울산인성교육센터,울산광역시 북구 정자동 321,129.446843,35.615877,400,250,공터,,11
82,울산광역시,북구,정자지구,벽산 아진아파트 주차장,울산광역시 북구 정자동 3,129.447597,35.619948,500,100,공터,,21
83,울산광역시,북구,정자지구,컴온비치호텔,울산광역시 북구 정자동 435,129.4457,35.62136,300,100,공터,,13
84,울산광역시,울주군,강양지구,만포횟집마당,울산광역시 울주군 온산읍 강양리 91-1,129.347249,35.391295,50,200,공터,,16
85,울산광역시,울주군,강양지구,야산(공터),울산광역시 울주군 온산읍 강양리 161,129.345265,35.393634,150,210,공터,,9
86,울산광역시,울주군,나사지구,서생중학교운동장,울산광역시 울주군 서생면 신암리 8-1,129.331214,35.350706,300,350,학교운동장,,15
87,울산광역시,울주군,나사지구,호소공원버스정류장,울산광역시 울주군 서생면 나사리 산15-6,129.343412,35.356941,200,200,도로변,,13
88,울산광역시,울주군,대송송정지구,간절곶해오름야영장 운동장,울산광역시 울주군 서생면 대송리 195,129.357535,35.35941,100,350,학교운동장,,23
89,울산광역시,울주군,대송송정지구,송정회관마당,울산광역시 울주군 서생면 대송리 335-6,129.353423,35.36631,50,300,공터,,23
90,울산광역시,울주군,대송송정지구,송정공원,울산광역시 울주군 서생면 대송리 339-29,129.354644,35.369923,150,400,공터,,30
91,울산광역시,울주군,신암지구,서생면사무소주차장,울산광역시 울주군 서생면 신암리 245-2,129.32638,35.349927,400,250,공터,,17
92,울산광역시,울주군,신암지구,소망교회주차장,울산광역시 울주군 서생면 신암리 324,129.31993,35.345133,100,300,공터,,17
93,울산광역시,울주군,신암지구,신암회관마당,울산광역시 울주군 서생면 신암리 454,129.323327,35.349226,100,300,공터,,12
94,울산광역시,울주군,진하지구,성동초등학교,울산광역시 울주군 서생면 서생리 387,129.341763,35.385667,500,520,공공건축물,1등급,9
95,울산광역시,울주군,진하지구,진하회관,울산광역시 울주군 서생면 진하리 255,129.342526,35.386721,100,580,공터,,6
96,울산광역시,울주군,평동지구,평동어촌계회관마당,울산광역시 울주군 서생면 대송리 67-2,129.353246,35.356335,120,120,공터,,10
97,울산광역시,울주군,평동지구,평동회관마당,울산광역시 울주군 서생면 대송리 77-2,129.353503,35.356749,50,210,공터,,12
98,강원도,강릉시,강릉항지구,송정해변 신도브래뉴아파트,강원도 강릉시 송정동 289,128.937913,37.775796,3500,350,민간건축물,1등급,6
99,강원도,강릉시,선택안함,죽도봉,강원도 강릉시 송정동 11-1,128.951554,37.769769,800,200,공터,,33
100,강원도,강릉시,강문지구,강릉교회,강원도 강릉시 포남2동 134,128.916247,37.793313,3600,100,민간건축물,2등급,6
101,강원도,강릉시,강문지구,강릉고등학교,강원도 강릉시 포남2동 70,128.91686,37.787813,8600,550,공공건축물,2등급,6
102,강원도,강릉시,경포지구,경포산장콘도,강원도 강릉시 경포동 50-2,128.900098,37.809654,800,300,민간건축물,1등급,23
103,강원도,강릉시,경포지구,현대아파트 앞 야산,강원도 강릉시 경포동 산10,128.899588,37.801328,2000,800,공터,,10
104,강원도,강릉시,경포지구,씨마크호텔,강원도 강릉시 강문동 274-1,128.915394,37.797992,700,100,민간건축물,1등급,26
105,강원도,강릉시,남항진지구,세인트컨벤션웨딩홀,강원도 강릉시 성덕동 42,128.949709,37.765126,1870,250,민간건축물,2등급,12
106,강원도,강릉시,동덕지구,강릉원주대학 해양생물연구교육센터,강원도 강릉시 사천면 사천진리 산5-3,128.862171,37.850557,5900,150,민간건축물,1등급,7
107,강원도,강릉시,사천뒷불지구,강릉성결교회 부설 진리수양관,강원도 강릉시 사천면 사천진리 산72-1,128.868683,37.841737,280,1100,민간건축물,1등급,10
108,강원도,강릉시,사천뒷불지구,장구바위 야산,강원도 강릉시 사천면 사천진리 1-3,128.876517,37.839983,300,420,공터,,10
109,강원도,강릉시,심곡지구,곰두리연수원,강원도 강릉시 강동면 심곡리 57,129.050972,37.667275,150,350,민간건축물,2등급,61
110,강원도,강릉시,안인지구,강인교회,강원도 강릉시 강동면 안인진리 270-18,128.982591,37.727727,150,600,민간건축물,2등급,12
111,강원도,강릉시,안인지구,봉화산,강원도 강릉시 강동면 안인진리 20-1,128.986957,37.736653,50,300,공터,,58
112,강원도,강릉시,안인지구,하시동2리 마을회관,강원도 강릉시 강동면 하시동리 56-1,128.972745,37.737193,100,900,공공건축물,2등급,27
113,강원도,강릉시,안인지구,노암동성당수련원,강원도 강릉시 강동면 안인진리 213-1,128.986121,37.730759,100,500,민간건축물,2등급,12
114,강원도,강릉시,영진항지구,육군1901부대 2대대,강원도 강릉시 연곡면 영진리 137,128.847534,37.866883,700,300,공터,,29
115,강원도,강릉시,옥계지구,기마봉 야산,강원도 강릉시 옥계면 금진리 96,129.048468,37.655441,2000,300,공터,,10
116,강원도,강릉시,옥계지구,옥계역,강원도 강릉시 옥계면 주수리 100,129.049714,37.616896,70,600,공공건축물,1등급,11
117,강원도,강릉시,옥계지구,한국여성수련원,강원도 강릉시 옥계면 금진리 464-1,129.046222,37.629532,6300,300,공공건축물,1등급,10
118,강원도,강릉시,정동지구,정동허브랜드,강원도 강릉시 강동면 정동진리 51-4,129.04094,37.681013,260,400,민간건축물,2등급,63
119,강원도,강릉시,정동지구,고성산,강원도 강릉시 강동면 정동진리 267-4번지,129.03378,37.689607,120,200,공터,,53
120,강원도,강릉시,정동지구,정동초등학교,강원도 강릉시 강동면 정동진리 184,129.033574,37.687221,160,300,공공건축물,1등급,10
121,강원도,강릉시,주문진항지구,주문진감리교회,강원도 강릉시 주문진읍 주문리 346-1,128.82637,37.89389,500,300,민간건축물,2등급,10
122,강원도,강릉시,주문진항지구,주문진성당,강원도 강릉시 주문진읍 교항리 산56,128.821923,37.885274,300,500,민간건축물,2등급,20
123,강원도,강릉시,주문진항지구,주영초등학교,강원도 강릉시 주문진읍 주문리 461,128.8267,37.897998,320,650,공공건축물,1등급,22
124,강원도,강릉시,주문진해변지구,소돌휴게소,강원도 강릉시 주문진읍 향호리 8-3,128.82936,37.905039,470,250,민간건축물,2등급,19
125,강원도,강릉시,주문진해변지구,우일아파트 야산,강원도 강릉시 주문진읍 주문리 산96-1,128.825099,37.904771,900,200,공터,,24
126,강원도,고성군,가진지구,가진교회 고지대,강원도 고성군 죽왕면 가진리 123-3,128.507909,38.37254,300,148,공터,,12
127,강원도,고성군,가진지구,가진항뒷산 고지대,강원도 고성군 죽왕면 가진리 산16임,128.510808,38.368111,400,69,공터,,17
128,강원도,고성군,가진지구,동호리뒷산 고지대,강원도 고성군 간성읍 동호리 산10-3임,128.476095,38.391802,1170,970,공터,,22
129,강원도,고성군,거진지구,거성초등학교 고지대,강원도 고성군 거진읍 진리 180,128.457383,38.45258,1800,437,학교운동장,,29
130,강원도,고성군,거진지구,거진성황당 고지대,강원도 고성군 거진읍 거진리 10-6임,128.462411,38.450475,500,138,공터,,32
131,강원도,고성군,거진지구,거진정보공업고등학교 고지대,강원도 고성군 거진읍 거진리 432,128.450281,38.440948,1800,393,학교운동장,,10
132,강원도,고성군,거진지구,거진중학교 고지대,강원도 고성군 거진읍 봉평리 31-1,128.447698,38.447087,1500,628,학교운동장,,11
133,강원도,고성군,공현진지구,공현진교회 고지대,강원도 고성군 죽왕면 공현진리 85,128.509234,38.355317,50,186,공터,,20
134,강원도,고성군,공현진지구,공현진초등학교 고지대,강원도 고성군 죽왕면 공현진리 334,128.507208,38.354208,700,309,공터,,12
135,강원도,고성군,공현진지구,송지호오토캠핑장뒷산 고지대,강원도 고성군 죽왕면 오봉리 12-2,128.511635,38.342031,200,385,공터,,17
136,강원도,고성군,교암지구,동광초등학교 운동장,강원도 고성군 토성면 교암리 86,128.543991,38.288775,500,348,공터,,11
137,강원도,고성군,교암지구,백촌복지회관 고지대,강원도 고성군 토성면 백촌리 123,128.540417,38.291983,50,570,공터,,10
138,강원도,고성군,교암지구,천학정야산 고지대,강원도 고성군 토성면 교암리 177-6임,128.547534,38.288391,200,55,공터,,15
139,강원도,고성군,대진지구,대진감리교회 고지대,강원도 고성군 현내면 대진리 189-1,128.426748,38.495172,300,242,공터,,34
140,강원도,고성군,대진지구,대진초등학교 고지대,강원도 고성군 현내면 대진리 148,128.423675,38.497052,1700,214,학교운동장,,11
141,강원도,고성군,대진지구,명파교회 고지대,강원도 고성군 현내면 명파리 295-33,128.401322,38.537318,300,562,공터,,22
142,강원도,고성군,대진지구,현내면공설운동장 고지대,강원도 고성군 현내면 대진리 310,128.41861,38.500797,2000,563,공터,,14
143,강원도,고성군,문암지구,문암군부대앞산 고지대,강원도 고성군 죽왕면 문암진리 산1-8임,128.548043,38.30344,450,95,공터,,25
144,강원도,고성군,문암지구,문암진리앞산 고지대,강원도 고성군 죽왕면 문암진리 95-2임,128.543018,38.30018,300,285,공터,,15
145,강원도,고성군,문암지구,오호초등학교뒷산 고지대,강원도 고성군 죽왕면 삼포리 215-5임,128.530779,38.314506,200,508,공터,,13
146,강원도,고성군,반암지구,반암리뒷산 고지대,강원도 고성군 거진읍 반암리 73-1 임,128.459125,38.423319,500,325,공터,,24
147,강원도,고성군,반암지구,반암초소 고지대,강원도 고성군 거진읍 반암리 53-1임,128.461126,38.423097,200,183,공터,,33
148,강원도,고성군,봉포지구,경동대학교 고지대,강원도 고성군 토성면 봉포리 306-3,128.556468,38.25159,1400,649,공터,,19
149,강원도,고성군,봉포지구,속초기상대 고지대,강원도 고성군 토성면 봉포리 111-3,128.564404,38.250728,150,268,공터,,18
150,강원도,고성군,아야진지구,아야진장로교회 고지대,강원도 고성군 토성면 청간리 2-1,128.554321,38.2691,150,219,공터,,16
151,강원도,고성군,아야진지구,아야진초등학교 고지대,강원도 고성군 토성면 아야진리 20,128.54959,38.27337,1600,413,학교운동장,,27
152,강원도,고성군,아야진지구,아야진침례교회 고지대,강원도 고성군 토성면 아야진리 41,128.555158,38.272221,150,95,공터,,12
153,강원도,고성군,아야진지구,토성정수장 고지대,강원도 고성군 토성면 청간리 산36-3임,128.554793,38.265186,100,379,공터,,30
154,강원도,고성군,오호지구,삼포마을뒷산 고지대,강원도 고성군 죽왕면 삼포리 산55-1임,128.529296,38.315042,150,442,공터,,27
155,강원도,고성군,오호지구,오호교회 고지대,강원도 고성군 죽왕면 오호리 170,128.525145,38.329206,150,236,공터,,15
156,강원도,고성군,오호지구,죽왕초등학교뒷산 고지대,강원도 고성군 죽왕면 오호리 산39-1임,128.522738,38.330697,700,442,공터,,20
157,강원도,고성군,천진지구,천진리뒷산(1) 고지대,강원도 고성군 토성면 천진리 산3-1,128.555129,38.256005,300,445,공터,,18
158,강원도,고성군,천진지구,천진리뒷산(2) 고지대,강원도 고성군 토성면 천진리 산32임,128.553032,38.255495,450,691,공터,,16
159,강원도,고성군,초도지구,대진중고등학교 고지대,강원도 고성군 현내면 초도리 75,128.433106,38.484328,390,296,학교운동장,,15
160,강원도,고성군,초도지구,이승만별장 고지대,강원도 고성군 현내면 죽정리 산1-3임,128.436434,38.470895,50,689,공터,,20
161,강원도,고성군,초도지구,초도항뒷산 고지대,강원도 고성군 현내면 초도리 222-30,128.430651,38.488511,50,151,공터,,13
162,강원도,고성군,초도지구,화진포정보화마을 고지대,강원도 고성군 현내면 초도리 84임,128.436931,38.483667,130,111,공터,,30
163,강원도,동해시,노봉지구,노봉택지,강원도 동해시 망상동 14-5,129.1054637,37.582091,400,550,공터,,27
164,강원도,동해시,노봉지구,노봉해수욕장내 야산,강원도 동해시 망상동 170-1,129.0981604,37.588287,400,100,공터,,19
165,강원도,동해시,노봉지구,목재유통센터,강원도 동해시 망상동 721,129.099655,37.581666,400,700,공터,,28
166,강원도,동해시,망상지구,기곡마을입구,강원도 동해시 망상동 409-21,129.080633,37.596084,5000,460,공터,,24
167,강원도,동해시,망상지구,망상초등학교 옆,강원도 동해시 망상동 360-16,129.089835,37.591189,2000,330,공터,,10
168,강원도,동해시,망상지구,해군전적비,강원도 동해시 망상동 396-40,129.0846615,37.59391,3000,290,공터,,17
169,강원도,동해시,"묵호,발한지구",논골도로,강원도 동해시 묵호진동 102-9,129.1162707,37.554126,200,250,도로변,,29
170,강원도,동해시,"묵호,발한지구",묵호대교,강원도 동해시 발한동 80-303,129.110979,37.541447,300,300,도로변,,22
171,강원도,동해시,"묵호,발한지구",산제골도로,강원도 동해시 묵호진동 78-60,129.113747,37.553543,200,250,도로변,,30
172,강원도,동해시,"묵호,발한지구",일출공원,강원도 동해시 묵호진동 2-126,129.12004,37.55507,100,50,공터,,23
173,강원도,동해시,부곡지구,평릉공원,강원도 동해시 평릉동 102-2,129.112147,37.536024,100,400,공터,,22
174,강원도,동해시,부곡지구,하평 주차장,강원도 동해시 천곡동 84-1,129.1157289,37.533878,50,150,공터,,13
175,강원도,동해시,어달지구,단병공입구,강원도 동해시 대진동 155-8,129.114684,37.577017,200,200,도로변,,24
176,강원도,동해시,어달지구,대진도로,강원도 동해시 대진동 196-4,129.1125945,37.579834,300,100,도로변,,15
177,강원도,동해시,어달지구,동해비치호텔위 마을주차장,강원도 동해시 묵호진동 2-42,129.1207191,37.557873,100,100,공터,,20
178,강원도,동해시,어달지구,바위섬횟집뒤 도로,강원도 동해시 어달동 11-11,129.1189125,37.560734,100,100,도로변,,16
179,강원도,동해시,어달지구,선창횟집뒤,강원도 동해시 어달동 25,129.119225,37.562864,400,90,공터,,20
180,강원도,동해시,어달지구,어달마을내 도로,강원도 동해시 어달동 134-5,129.117725,37.567126,400,100,도로변,,12
181,강원도,동해시,어달지구,어달소공원,강원도 동해시 어달동 47,129.1186236,37.56548,400,280,공터,,28
182,강원도,동해시,용정지구,감추사해안도로주차장,강원도 동해시 천곡동 78-1,129.124051,37.516274,30,150,공터,,27
183,강원도,동해시,천곡지구,가세마을야산,강원도 동해시 천곡동 1-4,129.121971,37.527528,100,300,공터,,22
184,강원도,동해시,천곡지구,법원삼거리옆 산책로,강원도 동해시 천곡동 818,129.119984,37.522472,100,260,공터,,18
185,강원도,동해시,추암지구,만경대,강원도 동해시 구미동 산53,129.136641,37.487154,50,100,공터,,31
186,강원도,동해시,추암지구,북평공단 소공원,강원도 동해시 구호동 249-1,129.155617,37.479673,200,400,공터,,13
187,강원도,동해시,추암지구,추암조각공원,강원도 동해시 추암동 477,129.1574342,37.479682,400,350,공터,,11
188,강원도,동해시,추암지구,추암택지,강원도 동해시 추암동 23,129.15724,37.476708,500,500,도로변,,35
189,강원도,동해시,추암지구,하수종말처리장,강원도 동해시 구미동 산5-9,129.1434019,37.490505,100,500,도로변,,31
190,강원도,동해시,추암지구,할미바위 옆 쉼터,강원도 동해시 구미동 산5-1,129.1454458,37.490779,200,400,공터,,15
191,강원도,삼척시,갈남지구,갈남마을회관뒤공터,강원도 삼척시 원덕읍 갈남리 13-2,129.326058,37.2781,100,391,공터,,30
192,강원도,삼척시,갈남지구,갈남전망대,강원도 삼척시 원덕읍 갈남리 104-24,129.322872,37.281137,100,385,도로변,,32
193,강원도,삼척시,궁촌지구,공양왕릉,강원도 삼척시 근덕면 궁촌리 178,129.266356,37.326132,100,536,공터,,55
194,강원도,삼척시,궁촌지구,궁촌침례교회앞공터,강원도 삼척시 근덕면 궁촌리 393,129.265109,37.321346,100,398,공터,,32
195,강원도,삼척시,궁촌지구,금메달주유소뒷산,강원도 삼척시 근덕면 매원리 35-4,129.2714,37.316661,100,650,공터,,43
196,강원도,삼척시,노실지구,노실분교운동장,강원도 삼척시 원덕읍 노곡리 142-2,129.341632,37.202365,200,326,학교운동장,,25
197,강원도,삼척시,덕산지구,노인요양원앞공터,강원도 삼척시 근덕면 덕산리 36,129.246983,37.378565,100,1150,공터,,54
198,강원도,삼척시,덕산지구,솔바람민박앞공터,강원도 삼척시 근덕면 덕산리 291,129.242343,37.381134,150,800,공터,,19
199,강원도,삼척시,상맹방1지구,국도굴다리옆공터,강원도 삼척시 근덕면 상맹방리 229-4,129.204345,37.404599,100,250,도로변,,13
200,강원도,삼척시,상맹방2지구,맹방초등학교,강원도 삼척시 근덕면 상맹방리 171-1,129.213268,37.398739,200,423,학교운동장,,15
201,강원도,삼척시,신남지구,돌기해삼배양장,강원도 삼척시 원덕읍 갈남리 456-1,129.323466,37.265899,100,321,공터,,21
202,강원도,삼척시,신남지구,어촌민속전시관공원내,강원도 삼척시 원덕읍 갈남리 301,129.327223,37.268046,100,351,공터,,35
203,강원도,삼척시,오분지구,남초교뒷산,강원도 삼척시 오분동 산 55,129.187659,37.426125,80,480,공터,,41
204,강원도,삼척시,오분지구,오분마을회관뒤공터,강원도 삼척시 오분동 산 14-4,129.189595,37.427768,90,460,공터,,32
205,강원도,삼척시,오분지구,오분파출소뒷편,강원도 삼척시 오분동 228-5,129.18862,37.43055,80,257,공터,,39
206,강원도,삼척시,용화지구,성황당옆대로,강원도 삼척시 근덕면 용화리 298-1,129.298198,37.28868,100,615,도로변,,31
207,강원도,삼척시,용화지구,장호용화랜드앞공터,강원도 삼척시 근덕면 장호리 318-1,129.308598,37.286883,200,548,공터,1등급,39
208,강원도,삼척시,용화지구,해망정공터,강원도 삼척시 근덕면 용화리 192-2,129.303443,37.288532,100,175,공터,,37
209,강원도,삼척시,용화지구,해상로프웨이,강원도 삼척시 근덕면 용화리 6,129.308218,37.289124,200,150,공공건축물,,30
210,강원도,삼척시,월천지구,마을공터,강원도 삼척시 원덕읍 월천리 106,129.355459,37.156619,200,377,공터,,41
211,강원도,삼척시,임원지구,남화산공원,강원도 삼척시 원덕읍 임원리 44,129.347406,37.23137,100,835,공터,,60
212,강원도,삼척시,임원지구,임원국도옆공터,강원도 삼척시 원덕읍 임원리 165,129.341681,37.230739,100,435,공터,,45
213,강원도,삼척시,임원지구,임원마을회관옆공터,강원도 삼척시 원덕읍 임원리 1208-52,129.345538,37.233887,150,335,공터,,35
214,강원도,삼척시,작진지구,작진마을진입공터,강원도 삼척시 원덕읍 노곡리 473-1,129.33717,37.19627,200,287,공터,,30
215,강원도,삼척시,장호지구,장호마을주차장,강원도 삼척시 근덕면 장호리 54-2,129.31871,37.285176,150,511,공터,,25
216,강원도,삼척시,장호지구,장호중학교뒤공터,강원도 삼척시 근덕면 장호리 201,129.311543,37.283881,200,608,공터,,30
217,강원도,삼척시,정라지구,감로사앞공터,강원도 삼척시 정상동 3-1,129.183813,37.440605,100,368,공터,,38
218,강원도,삼척시,정라지구,정라마을회관뒤공터,강원도 삼척시 정하동 산 3-4,129.187374,37.442322,100,548,공터,,76
219,강원도,삼척시,정라지구,조각공원뒷산,강원도 삼척시 교동 85-2,129.184648,37.45656,100,247,공터,,27
220,강원도,삼척시,정라지구,척추동해비,강원도 삼척시 정상동 82-1,129.184482,37.435591,100,508,공터,,34
221,강원도,동해시,증산지구,심심사앞공터,강원도 삼척시 교동 증산동 63,129.161064,37.473001,50,164,공터,,20
222,강원도,동해시,증산지구,쏠비치주차장 1,강원도 삼척시 증산동 172,129.164759,37.472101,200,437,도로변,,40
223,강원도,동해시,증산지구,이사부공원공터,강원도 삼척시 교동 증산동 1,129.159032,37.475559,200,344,공터,,32
224,강원도,삼척시,초곡지구,초곡마을입구,강원도 삼척시 근덕면 초곡리 406-11,129.284804,37.31062,100,450,공터,,16
225,강원도,삼척시,초곡지구,황영조기념관앞공터,강원도 삼척시 근덕면 초곡리 51,129.294732,37.307363,200,463,공터,,30
226,강원도,삼척시,하맹방지구,천주교 근처 공터,강원도 삼척시 근덕면 교가리 692-18,129.222539,37.380109,300,830,공터,,38
227,강원도,삼척시,하맹방지구,삼림욕장공터,강원도 삼척시 근덕면 하맹방리 221-7,129.227908,37.392228,300,100,공터,,15
228,강원도,삼척시,호산지구,빗물펌프장뒤공터,강원도 삼척시 원덕읍 호산리 299-7,129.342842,37.173482,200,473,도로변,,18
229,강원도,삼척시,호산지구,원덕파출소뒤공터,강원도 삼척시 원덕읍 호산리 277,129.338454,37.174945,325,300,공터,,20
230,강원도,삼척시,호산지구,호산항뒷산공터,강원도 삼척시 원덕읍 호산리 309,129.341531,37.174803,250,350,공터,,26
231,강원도,동해시,후진지구,삼척MBC앞공터,강원도 삼척시 교동 갈천동 111,129.163119,37.463388,150,261,공터,,30
232,강원도,동해시,후진지구,이사부사자공원뒷산,강원도 삼척시 증산동 1,129.159651,37.475726,150,575,공터,,37
233,강원도,동해시,후진지구,쏠비치주차장 2,강원도 삼척시 갈천동 225,129.163748,37.471266,200,580,공터,,40
234,강원도,속초시,교동지구,설악중학교운동장,강원도 속초시 교동 780-5,128.578438,38.206688,2400,1200,학교운동장,,40
235,강원도,속초시,교동지구,속초교육문화관,강원도 속초시 금호동 488-2,128.585968,38.206458,220,590,공터,,34
236,강원도,속초시,교동지구,청학연립주차장고지대,강원도 속초시 교동 486-184,128.584979,38.20319,710,350,공터,,30
237,강원도,속초시,금호지구,(구)측후소고지대,강원도 속초시 금호동 469-41,128.5912,38.206673,500,190,공터,,30
238,강원도,속초시,금호지구,속초해랑중학교,강원도 속초시 금호동 625-37,128.584739,38.207064,1500,770,학교운동장,,32
239,강원도,속초시,금호지구,시청주차장고지대,강원도 속초시 금호동 469-1,128.591128,38.207021,200,160,공터,1등급,22
240,강원도,속초시,노학지구,속초여자고등학교운동장,강원도 속초시 교동 802-1,128.568006,38.199761,2000,1230,학교운동장,,31
241,강원도,속초시,노학지구,아남프라자,강원도 속초시 교동 737-7,128.577567,38.197275,1800,460,민간건축물,,50
242,강원도,속초시,대포지구,내물치 뒷산 고지대,강원도 속초시 대포동 산 76-1,128.605578,38.1687146,700,110,공터,,30
243,강원도,속초시,대포지구,대포초등학교운동장,강원도 속초시 대포동 350,128.603809,38.173783,800,140,학교운동장,,21
244,강원도,속초시,대포지구,할머니성황당고지대,강원도 속초시 대포동 대포항,128.60465,38.171426,1000,90,공터,,23
245,강원도,속초시,동명지구,동명성당고지대,강원도 속초시 동명동 333-3,128.594877,38.212953,500,410,공터,,39
246,강원도,속초시,동명지구,속초감리교회,강원도 속초시 동명동 338,128.594013,38.212342,1500,450,공터,,39
247,강원도,속초시,영랑지구,동명천주교회,강원도 속초시 동명동 332,128.595314,38.213234,180,410,공터,,39
248,강원도,속초시,영랑지구,양우아파트고지대,강원도 속초시 속초시 영랑동 157,128.592672,38.2162,300,280,공터,,21
249,강원도,속초시,영랑지구,영금공원고지대,강원도 속초시 속초시 영랑동 1-7,128.599975,38.21388,1670,90,공터,,38
250,강원도,속초시,영랑지구,중앙공원고지대,강원도 속초시 속초시 동명동 산 51,128.585083,38.215271,3100,580,공터,,25
251,강원도,속초시,장사지구,속초고등학교운동장,강원도 속초시 속초시 장사동 460,128.583699,38.225719,2670,460,학교운동장,,20
252,강원도,속초시,장사지구,우림연립고지대,강원도 속초시 속초시 장사동 518-7,128.58519,38.226504,200,380,공터,,18
253,강원도,속초시,장사지구,해경충혼탑고지대,강원도 속초시 속초시 장사동 482-3,128.586193,38.227893,300,50,공터,,41
254,강원도,속초시,조양지구,선사유적지고지대,강원도 속초시 속초시 조양동 산 142-8,128.570953,38.190191,1900,460,공터,,36
255,강원도,속초시,조양지구,설악고등학교운동장,강원도 속초시 속초시 조양동 589-7,128.573411,38.185521,3000,1150,학교운동장,,60
256,강원도,속초시,청호2지구,조양초등학교,강원도 속초시 속초시 동해대로 3965,128.598066,38.188629,1500,510,학교운동장,,11
257,강원도,속초시,청호1지구,금강대교,강원도 속초시 청호동 금강대교,128.5936,38.2049,500,160,도로변,1등급,24
258,강원도,속초시,청호1지구,설악대교,강원도 속초시 청호동 설악대교,128.593605,38.201071,300,190,도로변,,24
259,강원도,속초시,청호2지구,이마트,강원도 속초시 청호동 459-134,128.595786,38.191238,500,520,민간건축물,,24
260,강원도,속초시,청호3지구,(구)대포정수장고지대,강원도 속초시 대포동 산 44,128.599959,38.179108,600,580,공터,,60
261,강원도,속초시,청호3지구,수질환경사업소고지대,강원도 속초시 대포동 552,128.606057,38.184507,630,50,공터,,18
262,강원도,속초시,청호3지구,조양감리교회고지대,강원도 속초시 조양동 1289-15,128.602467,38.183971,1000,500,공터,,25
263,강원도,양양군,기사문지구,기사문리철뚝,강원도 양양군 현북면 산54-2,128.73111,38.00555,300,350,공터,,25
264,강원도,양양군,낙산지구,전진리야산,강원도 양양군 강현면 전진리 산8-2,128.630222,38.122651,500,150,공터,,30
265,강원도,양양군,낙산지구,주청리야산,강원도 양양군 강현면 산6-1,128.629503,38.112342,500,500,공터,,20
266,강원도,양양군,남애지구,남애리 야산 1,강원도 양양군 현남면 남애리 1,128.786052,37.945723,200,300,공터,,30
267,강원도,양양군,남애지구,남애리 야산 2,강원도 양양군 현남면 남애리 1,128.785876,37.941682,200,200,공터,,25
268,강원도,양양군,남애지구,남애리 야산 3,강원도 양양군 현남면 남애리 1,128.786258,37.945462,200,300,공터,,25
269,강원도,양양군,동산지구,동산리야산,강원도 양양군 현남면 동산리 58-1,128.759085,37.980265,100,250,공터,,25
270,강원도,양양군,동호지구,동호리공항도로,강원도 양양군 손양면 동호리 563-8,128.6825,38.05138,250,500,공터,,30
271,강원도,양양군,동호지구,동호리야산,강원도 양양군 손양면 산44,128.68222,38.05527,250,250,공터,,30
272,강원도,속초시,물치지구,물치리 야산,강원도 양양군 강현면 물치리 산12,128.608039,38.156371,300,170,공터,,15
273,강원도,양양군,설악지구,용호리 야산,강원도 양양군 강현면 용호리 산1-3,128.620354,38.134255,300,100,공터,,25
274,강원도,양양군,수산지구,수산리야산 1,강원도 양양군 손양면 산85-1,128.67277,38.07638,150,200,공터,,25
275,강원도,양양군,수산지구,수산리야산 2,강원도 양양군 손양면 전20-2,128.67472,38.07333,150,200,공터,,25
276,강원도,양양군,오산지구,오산리야산,강원도 양양군 손양면 오산리 23-17,128.664823,38.089235,500,100,공터,,25
277,강원도,양양군,"인구,광진지구",광진리야산,강원도 양양군 현남면 광진리 35,128.768041,37.959337,100,100,공터,,15
278,강원도,양양군,"인구,광진지구",인구야산,강원도 양양군 현남면 111,128.7653083,37.952206,100,300,공터,,25
279,강원도,양양군,"인구,광진지구",천주교야산,강원도 양양군 현남면 시변리 41-7,128.759655,37.970416,100,300,공터,,20
280,강원도,양양군,정암지구,정암리 야산,강원도 양양군 강현면 정암리 산64-2,128.615,38.13722,200,300,공터,,20
281,강원도,양양군,"지경,원포지구",원포야산,강원도 양양군 현남면 산78,128.79333,37.92666,100,300,공터,,20
282,강원도,강릉시,"지경,원포지구",지경야산,강원도 양양군 현남면 산 1,128.79888,37.91694,100,500,공터,,15
283,강원도,양양군,하광정지구,하광정리 야산,강원도 양양군 현북면 하광정리 산19,128.73,38.01722,500,350,공터,,30
284,경상북도,포항시남구,강사1지구,벤트풀빌라 옆,경상북도 포항시 남구 호미곶면 강사리 212-1,129.578006,36.036037,50,250,공터,,18
285,경상북도,포항시남구,강사2지구,강사교회 앞 공터,경상북도 포항시 남구 호미곶면 강사리 437-4,129.57654,36.047199,64,600,공터,,19
286,경상북도,포항시남구,강사2지구,해송모텔 앞,경상북도 포항시 남구 호미곶면 강사리 756-5,129.576221,36.055119,11,570,공터,,18
287,경상북도,포항시남구,계원지구,세계원 횟집 앞,경상북도 포항시 남구 장기면 계원리 324,129.525328,35.861501,1011,240,공터,,14
288,경상북도,포항시남구,계원지구,등대회식당 버스승강장,경상북도 포항시 남구 장기면 계원리 26-3,129.5300464,35.868253,1500,278,공터,,32
289,경상북도,포항시남구,구룡포지구,구룡포 초등학교 앞,경상북도 포항시 남구 구룡포읍 구룡포리 765-1,129.5528671,35.98996,30,130,학교운동장,,8
290,경상북도,포항시남구,구룡포지구,구룡포중학교 앞,경상북도 포항시 남구 구룡포읍 구룡포리 199-47,129.566992,35.990631,30,260,학교운동장,,8
291,경상북도,포항시남구,구룡포지구,충혼탑 앞,경상북도 포항시 남구 구룡포읍 구룡포리 382-7,129.5608033,35.991107,330,100,공터,,15
292,경상북도,포항시남구,구룡포지구,해은사 앞,경상북도 포항시 남구 구룡포읍 구룡포리 94-14,129.5650457,35.996952,400,160,공터,,12
293,경상북도,포항시남구,구룡포지구,한빛수산 입구 도로,경상북도 포항시 남구 구룡포읍 구룡포리 331-18,129.565363,35.994695,270,260,공터,,15
294,경상북도,포항시남구,구만지구,구만리 389-1 주변,경상북도 포항시 남구 호미곶면 구만리 389-1,129.5508084,36.081356,185,430,공터,,28
295,경상북도,포항시남구,구만지구,호미곶팬션 앞,경상북도 포항시 남구 호미곶면 구만리 491-7,129.5480336,36.084611,50,500,공터,,9
296,경상북도,포항시남구,구평지구,건물 입구 공터,경상북도 포항시 남구 구룡포읍 구평리 112,129.533654,35.944446,89,425,공터,,26
297,경상북도,포항시남구,대동배지구,대동배1리마을뒷산,경상북도 포항시 남구 호미곶면 대동배리 359,129.5344882,36.058403,77,320,공터,,23
298,경상북도,포항시남구,대동배지구,대동배1리보건진료소 앞,경상북도 포항시 남구 호미곶면 대동배리 420-3,129.531342,36.055591,80,575,공터,,13
299,경상북도,포항시남구,대동배지구,대동배2리마을 뒤,경상북도 포항시 남구 호미곶면 대동배리 산26-6,129.5372641,36.065746,70,400,공터,,14
300,경상북도,포항시남구,대동배지구,대동배2리버스승강장앞,경상북도 포항시 남구 호미곶면 대동배리 48-2,129.5407202,36.06488,50,100,공터,,23
301,경상북도,포항시남구,도구지구,동해초등학교 앞,경상북도 포항시 남구 동해면 도구리 670,129.4406359,35.988221,267,535,학교운동장,,10
302,경상북도,포항시남구,두원지구,두원리 버스승강장 앞,경상북도 포항시 남구 장기면 두원리 523-15,129.515828,35.84356,100,193,공터,,6
303,경상북도,포항시남구,두원지구,두원주유소 앞,경상북도 포항시 남구 장기면 두원리 57-1,129.518114,35.84891,1500,425,공터,,19
304,경상북도,포항시남구,모포지구,대진주유소 앞,경상북도 포항시 남구 장기면 대진리 87-3,129.517354,35.923007,58,500,공터,,14
305,경상북도,포항시남구,모포지구,모포초등학교 앞,경상북도 포항시 남구 장기면 모포리 94-2,129.5230262,35.93445,50,470,학교운동장,,15
306,경상북도,포항시남구,발산지구,발산2리 마을뒤 공터,경상북도 포항시 남구 동해면 발산리 116-4,129.5191347,36.045009,30,200,공터,,25
307,경상북도,포항시남구,발산지구,발산교회 옆 공터,경상북도 포항시 남구 동해면 발산리 376-4,129.5075376,36.033357,31,390,공터,,17
308,경상북도,포항시남구,병포지구,경북대수련원 앞 공터,경상북도 포항시 남구 구룡포읍 하정리 31-3,129.5507552,35.975256,50,760,공터,,15
309,경상북도,포항시남구,병포지구,"구, 포항과학기술고등학교 앞",경상북도 포항시 남구 구룡포읍 병포리 139-1,129.5509125,35.983203,50,160,학교운동장,,35
310,경상북도,포항시남구,삼정지구,MGM 그랜드모텔 앞,경상북도 포항시 남구 구룡포읍 삼정리 485-3,129.568473,36.000185,400,700,공터,,18
311,경상북도,포항시남구,삼정지구,우리수산 앞,경상북도 포항시 남구 구룡포읍 석병리 904-2,129.576506,36.014618,400,390,공터,,28
312,경상북도,포항시남구,삼정지구,삼정2리 버스승강장 앞,경상북도 포항시 남구 구룡포읍 삼정리 148-50,129.5743906,36.005419,200,1150,공터,,12
313,경상북도,포항시남구,삼정지구,포스코수련원 앞,경상북도 포항시 남구 구룡포읍 삼정리 95-3,129.5765408,36.009397,80,390,공터,,11
314,경상북도,포항시남구,석병지구,구룡포청소년회관 앞,경상북도 포항시 남구 구룡포읍 석병리 250,129.57412,36.029325,60,670,공터,,43
315,경상북도,포항시남구,석병지구,대성수산 입구 앞,경상북도 포항시 남구 구룡포읍 석병리 20-1,129.5791441,36.03133,179,500,공터,,18
316,경상북도,포항시남구,석병지구,석병교회 옆,경상북도 포항시 남구 구룡포읍 석병리 640-2,129.577431,36.021156,130,670,공터,,29
317,경상북도,포항시남구,송도2지구,송도초등학교,경상북도 포항시 남구 송도동 311-285,129.379902,36.033705,500,540,학교운동장,,6
318,경상북도,포항시남구,신창지구,부산돼지국밥 옆,경상북도 포항시 남구 장기면 신창리 237-2,129.523232,35.892418,70,200,공터,,10
319,경상북도,포항시남구,신창지구,신창리 산15-1 공터,경상북도 포항시 남구 장기면 신창리 66-2,129.5259697,35.901097,179,215,공터,,35
320,경상북도,포항시남구,신창지구,황제노래연습장 앞,경상북도 포항시 남구 장기면 신창리 479-4,129.526652,35.885226,97,300,공터,,16
321,경상북도,포항시남구,양포지구,신창리 400-1앞 도로 옆 공터,경상북도 포항시 남구 장기면 신창리 400-1,129.526961,35.884167,1800,770,공터,,23
322,경상북도,포항시남구,양포지구,양포초등학교 앞,경상북도 포항시 남구 장기면 양포리 487-18,129.513098,35.87631,82,586,학교운동장,,9
323,경상북도,포항시남구,영암지구,영암리 버스승강장 앞,경상북도 포항시 남구 장기면 영암리 101-2,129.5259994,35.904067,265,315,공터,,13
324,경상북도,포항시남구,영암지구,백경오토캠핑장 앞,경상북도 포항시 남구 장기면 영암리 344-2,129.52541,35.909755,265,420,학교운동장,,17
325,경상북도,포항시남구,임곡지구,임곡1리 버스승강장 앞,경상북도 포항시 남구 동해면 임곡리 576-6,129.457401,35.994173,40,200,공터,,23
326,경상북도,포항시남구,임곡지구,청룡회관 입구,경상북도 포항시 남구 동해면 임곡리 310-2,129.461227,36.000212,41,540,공터,,32
327,경상북도,포항시남구,입암지구,카페마레 옆 공터,경상북도 포항시 남구 동해면 입암리 652-2,129.4668447,36.007384,21,220,공터,,20
328,경상북도,포항시남구,입암지구,입암2리마을회관 앞 공터,경상북도 포항시 남구 동해면 입암리 425-1,129.4769478,36.013278,20,180,공터,,15
329,경상북도,포항시남구,청림지구,청림초등학교 앞,경상북도 포항시 남구 청림동 934-6,129.4042859,35.994415,500,2100,학교운동장,,9
330,경상북도,포항시남구,청림지구,해병대 북문 주변,경상북도 포항시 남구 일월동 675-1,129.415274,35.994076,150,975,공터,,12
331,경상북도,포항시남구,하정지구,장길리교회 앞,경상북도 포항시 남구 구룡포읍 장길리 108-3,129.545396,35.954415,89,320,공터,,16
332,경상북도,포항시남구,하정지구,하정리 269번지 도로,경상북도 포항시 남구 구룡포읍 하정리 269,129.5467968,35.965353,401,710,도로변,,12
333,경상북도,포항시남구,하정지구,하정축양장 앞 공터,경상북도 포항시 남구 구룡포읍 하정리 115-2,129.552633,35.970759,350,670,공터,,12
334,경상북도,포항시남구,호미곶지구,대보초등학교 앞,경상북도 포항시 남구 호미곶면 구만리 123,129.5575016,36.078257,500,485,학교운동장,,9
335,경상북도,포항시남구,호미곶지구,대보1교차로 앞,경상북도 포항시 남구 대보면 대보리 14-9,129.570062,36.065071,53,335,공터,,15
336,경상북도,포항시남구,호미곶지구,해맞이광장입구 버스승강장,경상북도 포항시 남구 호미곶면 대보리 295-2,129.564597,36.076277,40,180,공터,,13
337,경상북도,포항시남구,호미곶지구,호미곶면사무소 앞,경상북도 포항시 남구 호미곶면 구만리 47-7,129.5556223,36.08065,15,610,공터,,22
338,경상북도,포항시남구,흥환지구,마산리 마을 뒤 공터,경상북도 포항시 남구 동해면 마산리 68-6,129.489297,36.015451,55,275,공터,,19
339,경상북도,포항시남구,흥환지구,마산리 버스승강장 앞 공터,경상북도 포항시 남구 동해면 마산리 69-5,129.489454,36.015143,50,230,공터,,22
340,경상북도,포항시남구,흥환지구,흥환리 마을회관 뒷산,경상북도 포항시 남구 동해면 흥환리 314,129.5041477,36.026393,100,140,공터,,11
341,경상북도,포항시남구,흥환지구,흥환주유소 옆 공터,경상북도 포항시 남구 동해면 흥환리 442-3,129.506836,36.024266,30,515,공터,,22
342,경상북도,포항시북구,곡강지구,곡강3리 마을뒷편 공터,경상북도 포항시 북구 흥해읍 곡강리 산87,129.398819,36.127621,20,500,공터,,14
343,경상북도,포항시북구,곡강지구,칠포해수욕장위부대앞,경상북도 포항시 북구 흥해읍 칠포리 산109-10,129.396475,36.132704,8,400,공터,,36
344,경상북도,포항시북구,두호지구,두호1어린이공원,경상북도 포항시 북구 두호동 1084-2,129.381184,36.064555,100,1150,공터,,14
345,경상북도,포항시남구,두호지구,포항고등학교 앞,경상북도 포항시 북구 학산동 288,129.3706418,36.056343,500,1130,학교운동장,,19
346,경상북도,포항시남구,두호지구,학산5어린이공원,경상북도 포항시 북구 항구동 344-6,129.375244,36.05692,100,330,공터,,20
347,경상북도,포항시북구,방석지구,1박2일펜션 앞,경상북도 포항시 북구 송라면 방석리 104,129.381648,36.234638,280,200,공터,,23
348,경상북도,포항시북구,방석지구,조사리버스승강장 앞,경상북도 포항시 북구 송라면 조사리 71-12,129.38448,36.222391,293,260,공터,,13
349,경상북도,포항시북구,방어지구,방어침례교회 앞,경상북도 포항시 북구 청하면 방어리 122,129.381445,36.211907,200,170,공터,,12
350,경상북도,포항시북구,방어지구,월포백번횟집앞,경상북도 포항시 북구 청하면 방어리 산16,129.376633,36.208705,200,690,공터,,12
351,경상북도,포항시남구,송도1지구,포항시립아트홀 앞,경상북도 포항시 북구 덕산동 129-1,129.3670106,36.040853,200,1560,공터,,13
352,경상북도,포항시북구,오도지구,사방기념관 입구,경상북도 포항시 북구 흥해읍 오도리 87,129.397939,36.163428,40,330,공터,,18
353,경상북도,포항시북구,오도지구,오도해수욕장 입구,경상북도 포항시 북구 흥해읍 오도리 359-3,129.398396,36.154109,48,220,공터,,20
354,경상북도,포항시북구,오도지구,작은펜션 앞 공터,경상북도 포항시 북구 흥해읍 오도리 543,129.396128,36.157311,40,570,공터,,34
355,경상북도,포항시북구,용두지구,오션뷰 펜션 앞,경상북도 포항시 북구 청하면 용두리 49-2,129.369475,36.194667,160,395,공터,여,15
356,경상북도,포항시북구,용한지구,용한1리 마을입구,경상북도 포항시 북구 흥해읍 용한리 산 41-1,129.4266122,36.110027,21,200,공터,,31
357,경상북도,포항시북구,월포지구,월포다리,경상북도 포항시 북구 청하면 월포리 3-18,129.372621,36.207883,500,650,공공건축물,,10
358,경상북도,포항시북구,월포지구,월포초교 뒷뜰앞,경상북도 포항시 북구 청하면 용두리 481-2,129.367358,36.203407,506,650,공터,,14
359,경상북도,포항시북구,이가지구,이가리 산68-3 일원,경상북도 포항시 북구 청하면 이가리 산68-3,129.378662,36.187751,200,230,공터,,23
360,경상북도,포항시북구,이가지구,이가힐펜션 앞,경상북도 포항시 북구 청하면 이가리 911,129.3838917,36.183752,120,450,공터,,20
361,경상북도,포항시북구,죽천지구,죽천마을입구 앞 버스정류장,경상북도 포항시 북구 흥해읍 죽천리 711-1,129.4176845,36.091235,80,400,공터,,16
362,경상북도,포항시북구,죽천지구,죽천초등학교 앞,경상북도 포항시 북구 흥해읍 우목리 105,129.4276113,36.097243,200,200,학교운동장,,22
363,경상북도,포항시북구,죽천지구,해뜨는집 앞 공터,경상북도 포항시 북구 흥해읍 죽천리 173-16,129.4175501,36.088605,90,730,공터,,30
364,경상북도,포항시북구,지경지구,지경검문소 앞 공터,경상북도 포항시 북구 송라면 지경리 199-1,129.374368,36.263295,130,160,공터,,14
365,경상북도,포항시북구,지경지구,화진교 옆 공터,경상북도 포항시 북구 송라면 지경리 621,129.370461,36.250098,50,445,공터,,9
366,경상북도,포항시북구,지경지구,화진휴게소 입구,경상북도 포항시 북구 송라면 지경리 342-6,129.371698,36.253542,140,280,공터,,19
367,경상북도,포항시북구,청진지구,선정마을입구 앞,경상북도 포항시 북구 청하면 청진리 309,129.392816,36.174615,80,600,공터,,27
368,경상북도,포항시북구,청진지구,스타팜펜션 앞 공터,경상북도 포항시 북구 청하면 청진리 413-1,129.396289,36.17027,50,170,공터,,20
369,경상북도,포항시북구,청진지구,청진1리 GS주유소 앞,경상북도 포항시 북구 청하면 청진리 78,129.390466,36.179059,70,260,공터,,30
370,경상북도,포항시북구,칠포1지구,칠포1리 고지대,경상북도 포항시 북구 흥해읍 칠포리 54-4,129.396806,36.145619,70,250,공터,,22
371,경상북도,포항시북구,칠포2지구,칠포2주유소 앞 공터,경상북도 포항시 북구 흥해읍 칠포리 265-1,36.140836,129.392435,34,230,공터,,16
372,경상북도,포항시북구,화진지구,화진1리 버스정류장 옆,경상북도 포항시 북구 송라면 화진리 261-1,129.382398,36.236579,210,600,공터,,24
373,경상북도,포항시북구,화진지구,화진2리 화진비치펜션 앞,경상북도 포항시 북구 송라면 화진리 180-1,129.381916,36.239312,208,400,공터,,21
374,경상북도,포항시북구,환여지구,포항해양과학고 앞,경상북도 포항시 북구 환호동 2-8,129.406166,36.074059,200,730,학교운동장,,22
375,경상북도,포항시북구,환여지구,해안로511번길10,경상북도 포항시 북구 여남동 97,129.413185,36.073489,150,160,공터,,23
376,경상북도,포항시북구,환여지구,환호 여중 앞,경상북도 포항시 북구 환호동 69,129.4007593,36.071086,370,350,학교운동장,,14
377,경상북도,포항시북구,환여지구,환호동해맞이공원,경상북도 포항시 북구 환호동 323-3,129.3954517,36.068228,570,560,공터,2등급,14
378,경상북도,경주시,감포지구,감포읍 버스공용주차장,경상북도 경주시 감포읍 전동리 115,129.496596,35.803422,800,600,공터,미적용,30
379,경상북도,경주시,감포지구,감포읍 주민복지회관,경상북도 경주시 감포읍 전촌리 221,129.493692,35.798548,500,500,공공건축물,,20
380,경상북도,경주시,감포지구,감포읍행정복지센터,경상북도 경주시 감포읍 감포리 56-1,129.501676,35.807396,500,170,공공건축물,,15
381,경상북도,경주시,감포지구,감포초등학교운동장,경상북도 경주시 감포읍 감포리 16,129.502019,35.809598,1300,300,학교운동장,,15
382,경상북도,경주시,관성지구,바다모텔 옆 야산,경상북도 경주시 양남면 수렴리 산85-5,129.4509,35.65906,200,120,공터,,15
383,경상북도,경주시,관성지구,통일로 토종순대국,경상북도 경주시 양남면 수렴리 94-9,129.462907,35.667406,500,150,공터,,15
384,경상북도,경주시,관성지구,현대자동차 수련원,경상북도 경주시 양남면 수렴리 240-6,129.4586,35.66864,1000,300,공터,,20
385,경상북도,경주시,나아지구,나산초등학교 운동장,경상북도 경주시 양남면 읍천리 17,129.4703,35.69788,1000,400,학교운동장,,15
386,경상북도,경주시,나정지구,나정1리 마을회관 앞 야산,경상북도 경주시 감포읍 나정리 203,129.491105,35.778701,500,180,공터,,15
387,경상북도,경주시,나정지구,나정2리 마을회관 뒤 솔밭,경상북도 경주시 감포읍 나정리 223-2,129.492946,35.777644,1000,150,공터,미적용,20
388,경상북도,경주시,나정지구,시드니 낚시마트 뒤 야산,경상북도 경주시 감포읍 천촌리 105-2,129.494894,35.792703,1000,100,공터,,40
389,경상북도,경주시,나정지구,전촌1리 마을회관 앞 야산,경상북도 경주시 감포읍 전촌리 532-1,129.488369,35.792853,500,550,공공건축물,미적용,15
390,경상북도,경주시,대본지구,감포관광단지 주차장,경상북도 경주시 감포읍 대본리 1247,129.492469,35.763351,3000,100,공터,,15
391,경상북도,경주시,대본지구,대본3리 마을회관 앞 공터,경상북도 경주시 감포읍 대본리 606-6,129.485942,35.7466097,50,100,공터,,15
392,경상북도,경주시,대본지구,대본초등학교 운동장,경상북도 경주시 감포읍 대본리 671,129.483839,35.74502,200,100,학교운동장,,15
393,경상북도,경주시,대본지구,전망대횟집 앞 야산,경상북도 경주시 감포읍 대본리 산172-2,129.49147,35.752587,1000,100,공터,,15
394,경상북도,경주시,봉길지구,수재마을소공원,경상북도 경주시 문무대왕면 봉길리 58-6,129.481791,35.736212,200,300,공터,,10
395,경상북도,경주시,오류지구,감포댐 입구,경상북도 경주시 감포읍 오류리 산14-81,129.511997,35.836855,1000,150,공터,,12
396,경상북도,포항시남구,오류지구,감포리조트펜션 주차장,경상북도 경주시 감포읍 오류리 137,129.51843,35.838173,500,130,공터,,12
397,경상북도,경주시,오류지구,감포중·고등학교,경상북도 경주시 감포읍 오류리 478-2,129.506759,35.810771,1300,350,학교운동장,,20
398,경상북도,경주시,오류지구,척사버스정류장 뒤 야산,경상북도 경주시 감포읍 오류리 326-2,129.510957,35.816212,1000,200,공터,,20
399,경상북도,경주시,읍천지구,읍천1리 마을회관 뒤 솔밭,경상북도 경주시 양남면 읍천리 산54,129.472536,35.690672,3000,140,공터,,20
400,경상북도,경주시,하서지구,양남중학교 운동장,경상북도 경주시 양남면 하서리 651,129.460154,35.673865,1000,400,학교운동장,,15
401,경상북도,경주시,하서지구,농협주유소 뒤 야산,경상북도 경주시 양남면 하서리 195-1,129.4701,35.68226,1000,150,공터,,20
402,경상북도,영덕군,강구지구,대게축구장입구,경상북도 영덕군 강구면 강구리 171-1,129.38971,36.362336,500,300,공터,,40
403,경상북도,영덕군,강구지구,미혜식당뒤,경상북도 영덕군 강구면 강구리 산75-12,129.39269,36.361934,400,65,공터,,31
404,경상북도,영덕군,강구지구,수협창고뒤,경상북도 영덕군 강구면 강구리 산50-1,129.385875,36.359965,400,400,공터,,36
405,경상북도,영덕군,거무역지구,7번국도변,경상북도 영덕군 병곡면 원황리 619-3,129.399714,36.576542,100,480,공터,,24
406,경상북도,영덕군,거무역지구,학생해양수련원,경상북도 영덕군 병곡면 거무역리 5-41,129.4125,36.578637,500,100,공터,,21
407,경상북도,영덕군,경정1지구,경정교회 뒷산,경상북도 영덕군 축산면 경정리 산192-1,129.431716,36.484882,200,350,공터,,30
408,경상북도,영덕군,경정1지구,경정해수욕장 뒷산,경상북도 영덕군 축산면 경정리 산60,129.432803,36.482615,100,100,공터,,25
409,경상북도,영덕군,경정1지구,축산항초등학교 경정분교뒤 공터,경상북도 영덕군 축산면 경정리 234,129.433657,36.486086,200,350,학교운동장,,20
410,경상북도,영덕군,경정2지구,태흥모텔 앞 공터,경상북도 영덕군 축산면 경정리 24,129.442883,36.493652,250,150,공터,,30
411,경상북도,영덕군,경정3지구,경정석산(버스승강장),경상북도 영덕군 축산면 경정리 산26-1,129.431814,36.475093,100,200,도로변,,35
412,경상북도,영덕군,구계지구,구계승강장,경상북도 영덕군 남정면 남정면 구계리 207-1,129.379697,36.320545,200,120,도로변,,30
413,경상북도,영덕군,구계지구,마을뒷산,경상북도 영덕군 남정면 남정면 구계리 산79-1,129.3758645,36.31935,220,220,공터,,20
414,경상북도,영덕군,구계지구,w펜션(구.아이씨프라자),경상북도 영덕군 남정면 남정면 구계리 375-5,129.378514,36.316572,150,50,공터,,30
415,경상북도,영덕군,구계지구,제당뒷산,경상북도 영덕군 남정면 남정면 구계리 산79-1,129.376904,36.319516,310,310,공터,,25
416,경상북도,영덕군,금곡1지구,금곡1서낭당,경상북도 영덕군 병곡면 금곡리 332-1,129.408859,36.642286,150,800,공터,,28
417,경상북도,영덕군,금곡1지구,마을뒷산,경상북도 영덕군 병곡면 금곡리 439,129.412771,36.641896,150,700,공터,,25
418,경상북도,영덕군,금곡1지구,칠보산도로변,경상북도 영덕군 병곡면 금곡리 산119-4,129.4106,36.638611,200,300,공터,,79
419,경상북도,영덕군,금곡2지구,구국도변 공터 1,경상북도 영덕군 병곡면 금곡리 13-1,129.422014,36.643406,70,300,공터,,28
420,경상북도,영덕군,금곡2지구,구국도변 공터 2,경상북도 영덕군 병곡면 금곡리 49-4,129.420621,36.642051,80,300,공터,,35
421,경상북도,영덕군,금진1지구,대구대학교연수원,경상북도 영덕군 강구면 금진리 85,129.403119,36.379819,500,80,공터,,22
422,경상북도,영덕군,금진1지구,마을뒷산,경상북도 영덕군 강구면 금진리 31-8,129.4051,36.381937,100,50,공터,,23
423,경상북도,영덕군,금진2지구,금진택지입구,경상북도 영덕군 강구면 금진리 665-13,129.393826,36.366124,200,180,공터,,22
424,경상북도,영덕군,금진2지구,소하민박뒤,경상북도 영덕군 강구면 금진리 597,129.395274,36.369197,50,70,공터,,20
425,경상북도,영덕군,금진2지구,풍성호뒤,경상북도 영덕군 강구면 금진리 630,129.394469,36.368648,50,70,공터,,20
426,경상북도,영덕군,남호지구,동해안횟집,경상북도 영덕군 남정면 중화길 40,129.373778,36.333401,100,120,공터,,30
427,경상북도,영덕군,남호지구,웰빙문화테마마을입구,경상북도 영덕군 남정면 남호리 36-3,129.3775171,36.32953985,70,660,공터,,28
428,경상북도,영덕군,노물지구,경노회관뒤 골목,경상북도 영덕군 영덕읍 노물리 45,129.434362,36.446471,25,140,공터,,48
429,경상북도,영덕군,노물지구,구)보건소 맞은편,경상북도 영덕군 영덕읍 노물리 170,129.431069,36.446812,35,370,공터,,42
430,경상북도,영덕군,노물지구,선창횟집 뒤,경상북도 영덕군 영덕읍 노물리 174-4,129.43115,36.446269,20,320,공터,,45
431,경상북도,영덕군,노물지구,대원사입구,경상북도 영덕군 영덕읍 노물리 161-1,129.430586,36.447791,35,430,공터,,54
432,경상북도,영덕군,노물지구,지미슈퍼뒤 공터,경상북도 영덕군 영덕읍 노물리 70-6,129.43293,36.447001,20,250,공터,,35
433,경상북도,영덕군,노물지구,해녀횟집뒤 골목,경상북도 영덕군 영덕읍 노물리 20,129.434947,36.446441,25,160,공터,,46
434,경상북도,영덕군,대부지구,구)마을회관옆,경상북도 영덕군 영덕읍 대부리 273,129.421112,36.401413,150,90,공터,,35
435,경상북도,영덕군,대부지구,창포교회뒤편,경상북도 영덕군 영덕읍 대부리 247-3,129.423048,36.403975,400,85,공터,,35
436,경상북도,영덕군,대진1지구,대진1리 마을뒤 야산,경상북도 영덕군 영해면 대진리 산10-7,129.428274,36.56187,160,230,공터,,30
437,경상북도,영덕군,대진2지구,마을뒤 야산 1,경상북도 영덕군 영해면 대진리 산23-1,129.428568,36.556292,200,150,공터,,20
438,경상북도,영덕군,대진3지구,마을뒤 야산 2,경상북도 영덕군 영해면 대진리 90-1,129.438802,36.550626,150,70,공터,,20
439,경상북도,영덕군,대탄지구,창호민박뒤,경상북도 영덕군 영덕읍 대탄리 산13-1,129.432269,36.433843,130,260,공터,,49
440,경상북도,영덕군,대탄지구,대탄갈릴리교회 뒤,경상북도 영덕군 영덕읍 대탄리 9,129.4309027,36.43558796,130,330,공터,,10
441,경상북도,영덕군,덕천지구,영덕경찰수련원,경상북도 영덕군 병곡면 영덕로 2108-152,129.416943,36.568802,300,500,공터,,20
442,경상북도,영덕군,백석1지구,철암산 1,경상북도 영덕군 병곡면 백석길 25,129.409239,36.620978,300,400,공터,,56
443,경상북도,영덕군,백석1지구,철암산 2,경상북도 영덕군 병곡면 백석길 11-12,129.409739,36.619014,300,400,공터,,56
444,경상북도,영덕군,백석2지구,7번국도변,경상북도 영덕군 병곡면 원황리 619-3,129.399682,36.576534,300,300,공터,,59
445,경상북도,영덕군,백석2지구,동해안휴게소,경상북도 영덕군 병곡면 백석리 706,129.410934,36.623494,300,300,공터,,59
446,경상북도,영덕군,병곡지구,바다향기펜션,경상북도 영덕군 병곡면 병곡리 15-6,129.414625,36.603732,200,300,공터,,49
447,경상북도,영덕군,병곡지구,병곡휴게소,경상북도 영덕군 병곡면 병곡리 331-9,129.413252,36.606215,800,600,공터,,41
448,경상북도,포항시북구,부경지구,힐링턴콘도,경상북도 영덕군 남정면 부경리 156,129.377074,36.27232363,400,90,공터,,30
449,경상북도,영덕군,부흥지구,마을회관,경상북도 영덕군 남정면 부흥리 75-8,129.376502,36.291838,300,130,공터,,30
450,경상북도,영덕군,사진1지구,마을뒤야산,경상북도 영덕군 영해면 사진리 산83,129.437517,36.538747,100,250,공터,,35
451,경상북도,영덕군,사진2지구,마을뒤 공터,경상북도 영덕군 영해면 사진리 310-4,129.43915,36.531065,150,150,공터,,40
452,경상북도,영덕군,사진3지구,마을뒤야산,경상북도 영덕군 영해면 사진리 산83,129.437517,36.538747,100,150,공터,,20
453,경상북도,영덕군,삼사지구,삼사공원입구1,경상북도 영덕군 강구면 삼사리 753-1,129.382064,36.345435,500,250,도로변,,27
454,경상북도,영덕군,삼사지구,삼사공원입구2,경상북도 영덕군 강구면 삼사리 234,129.384945,36.345255,150,100,도로변,,27
455,경상북도,영덕군,삼사지구,씨아일랜드주차장,경상북도 영덕군 강구면 삼사리 631-8,129.381578,36.340158,50,60,공터,,10
456,경상북도,영덕군,영4지구,영리 야산,경상북도 영덕군 병곡면 영리 296,129.402308,36.594331,300,600,공터,,49
457,경상북도,영덕군,오보지구,오보교회뒤,경상북도 영덕군 영덕읍 오보리 17-4,129.432117,36.442387,50,170,공터,,47
458,경상북도,영덕군,오보지구,오보보건소뒤,경상북도 영덕군 영덕읍 오보리 142,129.430228,36.441301,80,280,공터,,30
459,경상북도,영덕군,오포1지구,오포1리 마을뒷산(1),경상북도 영덕군 강구면 오포리 684-1,129.374242,36.361722,100,1400,공터,,340
460,경상북도,영덕군,오포1지구,오포1리 마을뒷산(2),경상북도 영덕군 강구면 오포리 산10,129.373347,36.364839,200,1500,공터,,340
461,경상북도,영덕군,"오포2,3지구",강구정보고,경상북도 영덕군 강구면 삼사리 15-1,129.379949,36.353377,1200,1100,학교운동장,,22
462,경상북도,영덕군,"오포2,3지구",강구초등학교,경상북도 영덕군 강구면 오포리 599-2,129.37878,36.356435,500,490,학교운동장,,20
463,경상북도,영덕군,"오포2,3지구",독도수산뒤,경상북도 영덕군 강구면 삼사리 8,129.386,36.353,500,160,공터,,37
464,경상북도,영덕군,"오포2,3지구",오포대게식당뒤,경상북도 영덕군 강구면 오포리 9-40,129.386473,36.354011,500,200,공터,,33
465,경상북도,영덕군,원척지구,마을공터,경상북도 영덕군 남정면 원척리 218-1,129.377639,36.297897,270,70,공터,,30
466,경상북도,영덕군,장사지구,남정중학교,경상북도 영덕군 남정면 장사리 410-1,129.370855,36.28362,500,1000,공터,,30
467,경상북도,영덕군,장사지구,부흥2리 뒷산,경상북도 영덕군 남정면 장사리 504-1,129.367869,36.287882,250,900,공터,,30
468,경상북도,영덕군,창포지구,창포활어대게횟집 뒤,경상북도 영덕군 영덕읍 창포리 911,129.428784,36.408875,30,130,공터,,35
469,경상북도,영덕군,창포지구,제당옆골목,경상북도 영덕군 영덕읍 창포리 572,129.428646,36.411318,30,90,공터,,24
470,경상북도,영덕군,창포지구,창포보건소뒤,경상북도 영덕군 영덕읍 창포리 931,129.423395,36.407756,30,100,공터,,29
471,경상북도,영덕군,창포지구,창포일반(강유복 집뒤),경상북도 영덕군 영덕읍 창포리 591,129.429359,36.412006,30,150,공터,,29
472,경상북도,영덕군,창포지구,창포초등학교,경상북도 영덕군 영덕읍 창포리 550,129.427915,36.409441,430,100,학교운동장,,25
473,경상북도,영덕군,축산항지구,목너머,경상북도 영덕군 축산면 축산리 산8-5,129.443537,36.512057,400,70,공터,,15
474,경상북도,영덕군,축산항지구,블루로드길,경상북도 영덕군 축산면 축산리 산113-2,129.444205,36.501362,100,70,공터,,40
475,경상북도,영덕군,축산항지구,와우산,경상북도 영덕군 축산면 축산리 산20-2,129.446597,36.510827,200,100,공터,,30
476,경상북도,영덕군,축산항지구,죽도산,경상북도 영덕군 축산면 축산리 산106-4,129.450889,36.507654,300,400,공터,,40
477,경상북도,영덕군,축산항지구,축산항초교,경상북도 영덕군 축산면 축산리 187,129.442524,36.509327,400,800,학교운동장,,20
478,경상북도,영덕군,하저지구,문화교맞은편뒤,경상북도 영덕군 강구면 하저리 401,129.406888,36.390612,100,200,공터,,15
479,경상북도,영덕군,하저지구,탁주합동제조장뒤,경상북도 영덕군 강구면 하저리 115,129.4084,36.392005,100,430,공터,,12
480,경상북도,영덕군,하저지구,푸른바다민박뒤,경상북도 영덕군 강구면 하저리 6-6,129.414122,36.393511,100,270,공터,,11
481,경상북도,영덕군,하저지구,하저문화마을뒤,경상북도 영덕군 강구면 하저리 449-1,129.404467,36.389579,200,310,공터,미적용,14
482,경상북도,울진군,산포지구3,방사능센터,경상북도 울진군 근남면 산포1길 34,129.402534,36.961282,300,1100,공공건축물,미적용,5
483,경상북도,울진군,노음지구,근남문화체육센터,경상북도 울진군 근남면 울진북로 151-3,129.395582,36.963613,300,1700,공공건축물,미적용,6
484,경상북도,울진군,노음지구,노음초등학교,경상북도 울진군 근남면 노음6길 22,129.39183,36.958665,300,2000,학교운동장,미적용,7
485,경상북도,울진군,노음지구,경원아파트,경상북도 울진군 근남면 노음리 331-4,129.394335,36.960899,200,1800,민간건축물,미적용,6
486,경상북도,울진군,산포지구3,산포리1030-4번지일대밭,경상북도 울진군 근남면 산포리 1030-4,129.408709,36.95873,100,630,공터,미적용,14
487,경상북도,울진군,산포지구4,산포리18번지일대밭,경상북도 울진군 근남면 산포리 18,129.416301,36.954601,150,130,공터,미적용,17
488,경상북도,울진군,산포지구5,산포리92번지일대밭,경상북도 울진군 근남면 산포리 312,129.415292,36.947544,100,250,공터,미적용,8
489,경상북도,울진군,산포지구5,산포리313번지일대밭,경상북도 울진군 근남면 산포리 313,129.41517,36.947661,100,250,공터,미적용,20
490,경상북도,울진군,산포지구5,산포3리마을회관,경상북도 울진군 근남면 산포리 75-1,129.417252,36.946499,100,170,공공건축물,미적용,7
491,경상북도,울진군,산포지구4,산포리523번지일대밭,경상북도 울진군 근남면 산포리 523,129.413565,36.95774,150,220,공터,미적용,11
492,경상북도,울진군,"산포지구1,2",산포리641-2번지도로일대,경상북도 울진군 근남면 산포리 642,129.412227,36.961896,100,200,도로변,미적용,14
493,경상북도,울진군,"산포지구1,2",해맞이공원주차장,경상북도 울진군 근남면 산포리 661-3,129.412294,36.964549,300,220,공터,미적용,21
494,경상북도,울진군,"산포지구1,2",망양정,경상북도 울진군 근남면 산포리 714,129.412732,36.966585,100,130,공터,미적용,42
495,경상북도,울진군,수산지구,수산리421번지일대,경상북도 울진군 근남면 수산리 421,129.394068,36.969744,100,1500,공터,미적용,21
496,경상북도,울진군,수산지구,수산리483-1번지일대,경상북도 울진군 근남면 수산리 483-1,129.397837,36.971833,80,1200,공터,미적용,12
497,경상북도,울진군,수산지구,수산리493번지공터,경상북도 울진군 근남면 수산리 493,129.397109,36.973011,300,1200,공터,미적용,10
498,경상북도,울진군,진복지구2,만영수산뒤밭,경상북도 울진군 근남면 진복리 174,129.417162,36.921837,100,175,공터,미적용,13
499,경상북도,울진군,진복지구2,진복2리복지회관뒤밭,경상북도 울진군 근남면 진복리 231-2,129.415913,36.918327,150,80,공터,미적용,9
500,경상북도,울진군,진복지구1,진복리522번지일대공터,경상북도 울진군 근남면 진복리 522,129.414516,36.926987,100,325,공터,미적용,19
501,경상북도,울진군,진복지구1,진복리651번지일대,경상북도 울진군 근남면 진복리 651,129.413523,36.929216,300,320,공터,미적용,8
502,경상북도,울진군,진복지구1,펜션뒤밭,경상북도 울진군 근남면 진복리 716-3,129.414849,36.931646,100,200,공터,미적용,5
503,경상북도,울진군,기성지구,기성리 451번지 옆 도로,경상북도 울진군 기성면 기성리 451번지,129.4570477,36.8037928,300,370,도로변,미적용,30
504,경상북도,울진군,기성지구,기성리 135번지 일대 밭,경상북도 울진군 기성면 척산리 135,129.449078,36.796401,100,100,공터,미적용,15
505,경상북도,울진군,기성지구,기성리 321번지 일대 밭,경상북도 울진군 기성면 척산리 321,129.451333,36.801116,100,250,공터,미적용,20
506,경상북도,울진군,망양지구2,삼성모텔 뒤 야산,경상북도 울진군 기성면 망양로 111,129.429198,36.846206,200,100,공터,미적용,18
507,경상북도,울진군,망양지구1,늘푸른민박,경상북도 울진군 기성면 망양로 217-1,129.425311,36.85498,200,100,민간건축물,미적용,14
508,경상북도,울진군,사동지구1,사동초등학교,경상북도 울진군 기성면 사동리 455,129.437804,36.830099,500,90,학교운동장,미적용,15
509,경상북도,울진군,구산지구1,구산중앙교회옆,경상북도 울진군 기성면 구산리 177,129.4665549,36.7611869,200,240,공터,미적용,22
510,경상북도,울진군,구산지구1,구산침례교회뒷산,경상북도 울진군 기성면 구산리 305,129.4657358,36.7584008,300,200,공터,미적용,21
511,경상북도,울진군,구산지구2,구산비치모텔뒤공터,경상북도 울진군 기성면 구산리 391,129.4647454,36.7520746,300,360,공터,미적용,20
512,경상북도,울진군,구산지구2,동해월송정옥상,경상북도 울진군 기성면 구산리 418-1,129.4642466,36.755058,300,280,공공건축물,미적용,22
513,경상북도,울진군,구산지구1,태평양횟집뒷산,경상북도 울진군 기성면 구산리 48-2,129.4713433,36.762684,150,150,공터,미적용,22
514,경상북도,울진군,구산지구1,마을뒤고지대밭,경상북도 울진군 기성면 구산리 83,129.4739681,36.7633661,300,240,공터,미적용,19
515,경상북도,울진군,기성지구,비행훈련원기숙사,경상북도 울진군 기성면 기성로 721,129.4500816,36.8023299,1000,550,공공건축물,미적용,40
516,경상북도,울진군,망양지구2,망양정옛터,경상북도 울진군 기성면 망양리 산68,129.427787,36.849533,300,90,공터,미적용,19
517,경상북도,울진군,망양지구1,마을뒤고지대,경상북도 울진군 기성면 망양리 515-1,129.423151,36.852363,500,300,공터,미적용,19
518,경상북도,울진군,봉산지구2,봉산2리마을회관뒤밭,경상북도 울진군 기성면 봉산리 115-2,129.4744597,36.7705571,200,120,공터,미적용,15
519,경상북도,울진군,봉산지구1,봉산리 150-1 일대 밭,경상북도 울진군 기성면 봉산리 150-1,129.471271,36.774725,100,100,공터,미적용,15
520,경상북도,울진군,봉산지구1,봉산1리마을뒷산,경상북도 울진군 기성면 봉산리 306,129.469003,36.780187,100,100,공터,미적용,26
521,경상북도,울진군,봉산지구1,봉산1리개인주택,경상북도 울진군 기성면 봉산리 322,129.4659341,36.7815236,300,250,민간건축물,미적용,23
522,경상북도,울진군,봉산지구1,봉산리 490번지 인근도로,경상북도 울진군 기성면 봉산리 490,129.458923,36.788557,1000,500,도로변,미적용,24
523,경상북도,울진군,봉산지구2,마을뒷산묘지,경상북도 울진군 기성면 봉산리 산60,129.4741185,36.7717517,300,60,공터,미적용,17
524,경상북도,울진군,봉산지구2,봉산2리개인주택,경상북도 울진군 기성면 봉산리 75-3,129.4756875,36.7691623,500,130,민간건축물,미적용,15
525,경상북도,울진군,사동지구2,마을뒤고지대,경상북도 울진군 기성면 사동리 168,129.44646,36.823227,300,90,공터,미적용,15
526,경상북도,울진군,사동지구1,마을뒤도로,경상북도 울진군 기성면 사동리 308-1,129.445475,36.828926,300,100,공터,미적용,15
527,경상북도,울진군,사동지구1,사동2리마을뒷산,경상북도 울진군 기성면 사동리 산13,129.443818,36.828633,100,100,공터,미적용,21
528,경상북도,울진군,사동지구2,사동3리마을뒷산,경상북도 울진군 기성면 사동리 산75,129.444455,36.825444,100,160,공터,미적용,26
529,경상북도,울진군,기성지구,기성초등학교,경상북도 울진군 기성면 척산2길 24-4,129.4494636,36.7979571,500,250,학교운동장,미적용,17
530,경상북도,울진군,오산지구3,해양레포츠센터,경상북도 울진군 매화면 오산항길 59,129.412866,36.890112,100,25,공공건축물,미적용,5
531,경상북도,울진군,"덕신지구1,2",덕신휴게소뒷산,경상북도 울진군 매화면 덕신리 255-1,129.414251,36.879281,250,780,공터,미적용,25
532,경상북도,울진군,"덕신지구1,2",마을뒤고지대밭,경상북도 울진군 매화면 덕신리 317,129.413354,36.882028,250,670,공터,미적용,11
533,경상북도,울진군,"덕신지구1,2",덕신감리교회뒷편,경상북도 울진군 매화면 덕신리 406-3,129.414481,36.884086,250,220,공터,미적용,6
534,경상북도,울진군,"덕신지구1,2",덕신리마을뒷산,경상북도 울진군 매화면 덕신리 476-1,129.413266,36.886952,250,230,공터,미적용,11
535,경상북도,울진군,오산지구2,망양정로,경상북도 울진군 매화면 오산리 106-4,129.418581,36.897202,100,180,도로변,미적용,18
536,경상북도,울진군,오산지구2,오산항 등대,경상북도 울진군 매화면 오산리 238,129.417633,36.894381,100,340,공터,미적용,43
537,경상북도,울진군,오산지구3,마을뒤고지대,경상북도 울진군 매화면 오산리 253-2,129.416821,36.893807,200,510,공터,미적용,9
538,경상북도,울진군,오산지구3,순복음교회뒷산,경상북도 울진군 매화면 오산리 294,129.414937,36.892792,150,360,공터,미적용,11
539,경상북도,울진군,오산지구1,오산3리뒷산,경상북도 울진군 매화면 오산리 561,129.413034,36.904267,250,450,공터,미적용,11
540,경상북도,울진군,오산지구1,마을뒤고지대,경상북도 울진군 매화면 오산리 642-1,129.414032,36.90945,380,320,공터,미적용,14
541,경상북도,울진군,부구지구2,사슴농장앞도로,경상북도 울진군 북면 중흥부길 35-10,129.357159,37.102807,100,720,도로변,미적용,18
542,강원도,삼척시,나곡지구1,금세골,경상북도 울진군 북면 나곡리 1134,129.359483,37.14325,100,170,도로변,미적용,49
543,경상북도,울진군,나곡지구3,나곡리 129-4 공터,경상북도 울진군 북면 나곡리 129-4,129.358765,37.12575,40,880,공터,미적용,21
544,경상북도,울진군,나곡지구3,한수원아파트,경상북도 울진군 북면 나곡리 178-1,129.37177,37.109534,500,610,공터,미적용,8
545,경상북도,울진군,나곡지구3,나곡리 50-18 야산,경상북도 울진군 북면 나곡리 50-18,129.37586,37.113595,40,250,공터,미적용,15
546,경상북도,울진군,나곡지구3,석호마을아파트,경상북도 울진군 북면 나곡리 62-1,129.373484,37.114456,330,230,도로변,미적용,7
547,경상북도,울진군,나곡지구2,모텔휠파크앞도로,경상북도 울진군 북면 나곡리 686-7,129.370648,37.124414,360,280,도로변,미적용,14
548,경상북도,울진군,나곡지구2,나곡리725-2일대밭,경상북도 울진군 북면 나곡리 725-2,129.369187,37.125345,200,390,공터,미적용,15
549,경상북도,울진군,나곡지구2,나곡비치모텔,경상북도 울진군 북면 나곡리 880,129.370647,37.127146,50,60,공터,미적용,15
550,강원도,삼척시,나곡지구1,나곡리1146-3주변,경상북도 울진군 북면 나곡리 산14-16,129.361378,37.14178,100,410,공터,미적용,33
551,경상북도,울진군,나곡지구2,만남의광장앞도로,경상북도 울진군 북면 나곡리 산169,129.367804,37.128572,200,390,도로변,미적용,16
552,경상북도,울진군,부구지구1,북면사무소,경상북도 울진군 북면 부구3길 12,129.372869,37.104879,100,200,공공건축물,미적용,8
553,경상북도,울진군,부구지구1,마을회관뒤밭,경상북도 울진군 북면 부구리 158,129.372431,37.10386,50,80,공터,미적용,12
554,경상북도,울진군,부구지구1,부구교회뒤밭,경상북도 울진군 북면 부구리 211-18,129.374733,37.10583,50,330,공터,미적용,16
555,경상북도,울진군,부구지구2,두산중공업사원아파트뒤밭,경상북도 울진군 북면 부구리 319-1,129.367101,37.102216,200,420,공터,미적용,26
556,경상북도,울진군,부구지구2,부구리528일대밭,경상북도 울진군 북면 부구리 528,129.365701,37.101174,200,180,공터,미적용,25
557,경상북도,울진군,부구지구1,부구초등학교옆,경상북도 울진군 북면 부구리 278,129.372029,37.1023007,100,520,공터,미적용,24
558,경상북도,울진군,"연지지구 2, 3",대동빌라,경상북도 울진군 울진읍 현내항길 191,129.41432,36.991621,180,60,공공건축물,미적용,25
559,경상북도,울진군,연지지구 1,연지리406-1번지일대,경상북도 울진군 울진읍 연지리 406-1,129.415874,37.002628,100,550,공터,미적용,22
560,경상북도,울진군,연지지구 1,연지리495-1번지도로일대,경상북도 울진군 울진읍 연지리 495-1,129.416483,37.005024,300,240,도로변,미적용,26
561,경상북도,울진군,온양지구 1,온양2리마을회관뒷산,경상북도 울진군 울진읍 온양리 127-2,129.407644,37.02781,100,130,공터,미적용,25
562,경상북도,울진군,온양지구 2,고래꿈호텔,경상북도 울진군 울진읍 온양리 317-4,129.412116,37.015837,300,320,공터,미적용,22
563,경상북도,울진군,온양지구 1,온양리175번지일대,경상북도 울진군 울진읍 온양리 175,129.406909,37.025328,100,220,공터,미적용,17
564,경상북도,울진군,온양지구 2,온양교원사택앞,경상북도 울진군 울진읍 온양리 224-27,129.408702,37.023708,50,190,공터,미적용,15
565,경상북도,울진군,온양지구 1,교원사택,경상북도 울진군 울진읍 울진북로 925,129.408381,37.024051,500,100,공터,미적용,5
566,경상북도,울진군,읍남지구 1,읍남리102-1번지마을뒤언덕,경상북도 울진군 울진읍 읍남리 102-1,129.405716,36.980846,100,340,공터,미적용,9
567,경상북도,울진군,읍남지구 2,읍남리145번지일대밭,경상북도 울진군 울진읍 읍남리 152-1,129.408393,36.985813,100,210,공터,미적용,23
568,경상북도,울진군,"연지지구 2, 3",연지1리마을회관,경상북도 울진군 울진읍 현내항길 307,129.415332,36.991508,200,40,공공건축물,미적용,15
569,경상북도,울진군,봉평지구2,봉평1리마을회관,경상북도 울진군 죽변면 봉평리 292-11,129.413402,37.03426,100,100,공공건축물,미적용,13
570,경상북도,울진군,봉평지구2,죽변비취모텔뒷편,경상북도 울진군 죽변면 봉평리 200,129.413717,37.037414,100,560,공터,미적용,13
571,경상북도,울진군,봉평지구1,골마야산밭,경상북도 울진군 죽변면 봉평리 577,129.409917,37.047678,50,490,공터,미적용,16
572,경상북도,울진군,봉평지구1,봉평신라비전시관옆,경상북도 울진군 죽변면 봉평리 산 71-3,129.407335,37.043939,100,560,공터,미적용,17
573,경상북도,울진군,봉평지구1,이안빌라뒷편,경상북도 울진군 죽변면 봉평리 산 76-1,129.412348,37.042692,100,170,공터,미적용,16
574,경상북도,울진군,"죽변1,2지구",죽변초등학교,경상북도 울진군 죽변면 죽변3길 17,129.421781,37.063811,450,490,학교운동장,미적용,17
575,경상북도,울진군,"죽변1,2지구",죽변중고등학교,경상북도 울진군 죽변면 죽변4길 19,129.4203,37.064579,500,580,학교운동장,미적용,21
576,경상북도,울진군,"죽변1,2지구",동도빌라,경상북도 울진군 죽변면 죽변리 197-1,129.423625,37.064265,500,290,공터,미적용,34
577,경상북도,울진군,"죽변1,2지구",정구장,경상북도 울진군 죽변면 죽변리 1-43,129.428183,37.057631,450,680,공터,미적용,26
578,경상북도,울진군,"죽변1,2지구",죽변면 보건지소,경상북도 울진군 죽변면 죽변리 57-1,129.422542,37.061196,840,380,공공건축물,미적용,15
579,경상북도,울진군,"죽변1,2지구",용진모텔뒤공터,경상북도 울진군 죽변면 후정리 277-1,129.417258,37.05861,100,610,공터,미적용,16
580,경상북도,울진군,"죽변1,2지구",죽변119안전센터,경상북도 울진군 죽변면 후정리 381-6,129.412672,37.055117,30,1000,공공건축물,미적용,26
581,경상북도,울진군,거일지구2,거일평화교회,경상북도 울진군 평해읍 울진대게로 603-12,129.473212,36.705132,48,100,공터,미적용,27
582,경상북도,울진군,거일지구2,마을뒷산고지대 1,경상북도 울진군 평해읍 거일리 192,129.473863,36.703751,48,250,공터,미적용,27
583,경상북도,울진군,거일지구1,마을뒷산고지대 2,경상북도 울진군 평해읍 거일리 83-1,129.472922,36.708334,48,100,공터,미적용,27
584,경상북도,울진군,거일지구1,마을뒷산고지대 3,경상북도 울진군 평해읍 거일리 산153-1,129.474662,36.701041,48,150,공터,미적용,25
585,경상북도,울진군,거일지구1,마을뒷산고지대 4,경상북도 울진군 평해읍 거일리 산159,129.474906,36.699183,48,150,공터,미적용,25
586,경상북도,울진군,거일지구1,마을뒷산고지대 5,경상북도 울진군 평해읍 거일리 산29,129.471135,36.714272,47,260,공터,미적용,25
587,경상북도,울진군,거일지구1,파도향기펜션,경상북도 울진군 평해읍 거일리 61-2,129.472727,36.711475,48,230,공터,미적용,20
588,경상북도,울진군,거일지구1,평해연수원뒷산,경상북도 울진군 평해읍 거일리 산63,129.4726,36.708242,47,120,공터,미적용,25
589,경상북도,울진군,월송지구1,월송초등학교,경상북도 울진군 평해읍 월송길 59,129.458995,36.735894,388,600,학교운동장,미적용,15
590,경상북도,울진군,월송지구3,마을뒷산고지대,경상북도 울진군 평해읍 월송리 산18,129.458223,36.741326,200,600,공터,미적용,27
591,경상북도,울진군,월송지구2,월송2리마을회관뒷산,경상북도 울진군 평해읍 월송리 산22-6,129.459518,36.739277,200,600,공터,미적용,25
592,경상북도,울진군,직산지구1,해뜨는 바다펜션 옆 고지대,경상북도 울진군 평해읍 직산리 28-2,129.475122,36.733142,70,180,공터,미적용,18
593,경상북도,울진군,직산지구1,해뜨는 바다펜션 뒷산,경상북도 울진군 평해읍 직산리 20-1,129.475082,36.732957,84,240,공터,미적용,20
594,경상북도,울진군,직산지구2,직산2리 282번지 밭 일대,경상북도 울진군 평해읍 직산리 288,129.470291,36.719718,70,250,공터,미적용,22
595,경상북도,울진군,직산지구2,직산보건소뒷산,경상북도 울진군 평해읍 직산리 317,129.469521,36.721387,70,180,공터,미적용,18
596,경상북도,울진군,직산지구1,직산1리 마을회관 뒤 고지대,경상북도 울진군 평해읍 직산리 61-1,129.474533,36.732433,70,150,공터,미적용,15
597,경상북도,울진군,직산지구2,직산2리마을회관뒷산,경상북도 울진군 평해읍 직산리 산42,129.470617,36.723472,70,60,공터,미적용,18
598,경상북도,울진군,삼율지구3,남울진청년회의소,경상북도 울진군 후포면 정실2길 104,129.435627,36.677578,300,350,공터,미적용,20
599,경상북도,울진군,후포지구4,선재하이츠빌라옥상,경상북도 울진군 후포면 후포로 121,129.45399,36.681765,200,200,민간건축물,미적용,17
600,경상북도,울진군,삼율지구3,보성장여관,경상북도 울진군 후포면 후포삼율로 70,129.440494,36.676521,200,250,민간건축물,미적용,15
601,경상북도,울진군,금음지구1,마을뒤고지대(주차장),경상북도 울진군 후포면 금음리 113-1,129.431278,36.668098,300,240,공터,미적용,20
602,경상북도,울진군,금음지구1,마을뒤공터,경상북도 울진군 후포면 금음리 114-6,129.429487,36.66724,200,160,공터,미적용,15
603,경상북도,울진군,금음지구2,국도옆산마루측구,경상북도 울진군 후포면 금음리 259,129.431039,36.660888,300,80,공터,미적용,25
604,경상북도,울진군,금음지구3,구 7번국도,경상북도 울진군 후포면 금음리 385,129.436249,36.673766,500,300,도로변,미적용,40
605,경상북도,영덕군,금음지구3,구7번국도,경상북도 울진군 후포면 금음리 392,129.422408,36.64519,500,200,도로변,미적용,20
606,경상북도,울진군,삼율지구3,7번국도 옆 공장부지,경상북도 울진군 후포면 금음리 28-4,129.436605,36.673303,500,200,공터,미적용,30
607,경상북도,울진군,금음지구2,풍경모텔뒷산,경상북도 울진군 후포면 금음리 산155-1,129.429702,36.66422,500,250,공터,미적용,24
608,경상북도,영덕군,금음지구2,반소골길,경상북도 울진군 후포면 금음리 산259,129.398723,36.665528,300,100,공터,미적용,20
609,경상북도,울진군,금음지구1,어업무선국송신소,경상북도 울진군 후포면 동해대로 307-18,129.434671,36.669545,300,100,공터,미적용,24
610,경상북도,울진군,삼율지구1,후포초등학교,경상북도 울진군 후포면 삼율5길 8,129.441419,36.681171,9000,350,학교운동장,미적용,18
611,경상북도,울진군,삼율지구1,마을뒤고지대(주차장),경상북도 울진군 후포면 삼율리 356-2,129.439841,36.681515,500,220,공터,미적용,19
612,경상북도,울진군,삼율지구2,삼영아파트옥상,경상북도 울진군 후포면 울진대게로 24-7,129.442473,36.677247,400,150,민간건축물,미적용,20
613,경상북도,울진군,삼율지구3,공영하이츠옥상,경상북도 울진군 후포면 정실2길 24-1,129.439106,36.677606,500,300,민간건축물,미적용,35
614,경상북도,울진군,삼율지구2,우성플러스빌옥상,경상북도 울진군 후포면 청구천길 4-8,129.444831,36.681785,300,120,민간건축물,미적용,37
615,경상북도,울진군,후포지구1,후포등기산공원,경상북도 울진군 후포면 후포리 583-1,129.462484,36.682059,800,200,공터,미적용,43
616,경상북도,울진군,후포지구4,후포교회,경상북도 울진군 후포면 후포로 101,129.452309,36.680862,300,100,공터,미적용,17
617,경상북도,울진군,후포지구2,용마맨션옥상,경상북도 울진군 후포면 후포로 195,129.460817,36.681841,300,100,민간건축물,미적용,19
618,경상북도,울진군,후포지구3,후포2리뒷산,경상북도 울진군 후포면 후포리 292,129.457216,36.684346,400,200,공터,미적용,35
619,경상북도,울진군,후포지구2,후포2리마을고지대,경상북도 울진군 후포면 후포리 361-1,129.458912,36.683827,100,280,공터,미적용,25
620,경상북도,울진군,후포지구1,마을뒷산고지대,경상북도 울진군 후포면 후포리 37,129.464291,36.688566,200,120,공터,미적용,20
621,경상북도,울진군,후포지구1,마을뒷산 고지대,경상북도 울진군 후포면 후포리 37,129.464335,36.688388,200,100,공터,미적용,19
622,경상북도,울진군,후포지구1,후포1리마을고지대,경상북도 울진군 후포면 후포리 447-1,129.460012,36.684868,300,100,공터,미적용,20
623,경상북도,울진군,후포지구2,등기산주차장,경상북도 울진군 후포면 후포리 563,129.463525,36.681837,800,160,공터,미적용,25
624,경상북도,울진군,후포지구1,후포동부초등학교,경상북도 울진군 후포면 후포리 427-1,129.462775,36.685801,500,130,학교운동장,미적용,20
625,경상북도,울진군,후포지구1,평해광업사원아파트,경상북도 울진군 후포면 후포리 산140,129.462909,36.684005,400,200,공터,미적용,25
626,경상북도,울진군,후포지구2,전망대,경상북도 울진군 후포면 후포리 산141-13,129.464702,36.680477,200,160,공터,미적용,21
627,경상북도,울진군,삼율지구2,마을뒷산고지대,경상북도 울진군 후포면 후포리 산96-17,129.448621,36.67981,400,100,공터,미적용,20
628,경상북도,울진군,삼율지구2,정우맨션옥상,경상북도 울진군 후포면 후포삼율로 128-7,129.443616,36.681342,300,360,민간건축물,,17
629,경상북도,울릉군,남양지구,남양초등학교,경상북도 울릉군 서면 남양리 586-2,130.8399,37.46863,400,336,학교운동장,,21
630,경상북도,울릉군,남양지구,서면사무소,경상북도 울릉군 서면 남양리 659-2,130.838096,37.467716,100,136,공터,,16
631,경상북도,울릉군,남양지구,울릉서중학교,경상북도 울릉군 서면 남서리 30-3,130.836369,37.468891,400,228,학교운동장,,17
632,경상북도,울릉군,도동지구,울릉중학교,경상북도 울릉군 울릉읍 도동리 223-8,130.902622,37.484955,400,328,학교운동장,,48
633,경상북도,울릉군,사동지구,농업기술센터,경상북도 울릉군 울릉읍 사동리 541-8,130.873821,37.460251,200,185,공터,,38
634,경상북도,울릉군,저동지구,우산중학교,경상북도 울릉군 울릉읍 저동리 452,130.906256,37.494907,500,330,학교운동장,,45
635,경상북도,울릉군,저동지구,울릉고등학교,경상북도 울릉군 울릉읍 도동리 350,130.907692,37.492858,700,192,학교운동장,,27
636,경상북도,울릉군,천부지구,북면사무소,경상북도 울릉군 북면 천부리 529-8,130.874727,37.540797,200,146,공터,,16
637,경상북도,울릉군,천부지구,천부초등학교,경상북도 울릉군 북면 천부리 694,130.871402,37.537065,300,228,학교운동장,,55
638,경상북도,울릉군,태하지구,태하분교,경상북도 울릉군 서면 태하리 521-2,130.802098,37.512887,50,351,학교운동장,,16
639,경상북도,울릉군,태하지구,태하출장소,경상북도 울릉군 서면 태하리 539-27,130.800997,37.512325,50,343,공터,,14
640,경상북도,울릉군,현포지구,현포분교,경상북도 울릉군 북면 현포리 549,130.822013,37.524451,300,231,학교운동장,,33
